Name,Address,Longitude,Latitude,geometry
1011 Harborside Dr Garage,"1011 Harborside Drive, Galveston",-94.7798238,29.3119026,POINT (-94.7798238 29.3119026)
102 Kempner St. Lot,"102 Kempner Street, Galveston",-94.7929968,29.3082068,POINT (-94.7929968 29.3082068)
1201 Harborside Drive Parking,"1201 Harborside Drive, Galveston",-94.7820555,29.3116497,POINT (-94.7820555 29.3116497)
1301-1399 Mechanic St Parking,"1301-1399 Mechanic Street, Galveston",-94.7828452,29.309375,POINT (-94.7828452 29.309375)
144 22nd St Parking,"144 22nd Street, Galveston",-94.7930049,29.3081835,POINT (-94.7930049 29.3081835)
1859 Ashton Villa,"2328 Broadway Avenue J, Galveston",-94.7928797,29.3001881,POINT (-94.7928797 29.3001881)
1859 St. Joseph's Church,"2202 Avenue K, Galveston",-94.790738,29.2996052,POINT (-94.790738 29.2996052)
1880 Garten Verein,"2704 Avenue O, Galveston",-94.7951569,29.2928902,POINT (-94.7951569 29.2928902)
1886 Victorian,"2002 Avenue K, Galveston",-94.7884721,29.3001899,POINT (-94.7884721 29.3001899)
1909 Market St Parking,"1909 Market Street, Galveston",-94.789535,29.306246,POINT (-94.789535 29.306246)
2011 Market St Parking,"2011 Market Street, Galveston",-94.7907929,29.3059209,POINT (-94.7907929 29.3059209)
2019-2099 Mechanic Street Parking,"2019-2099 Mechanic Street, Galveston",-94.7910633,29.3065551,POINT (-94.7910633 29.3065551)
2024 Seawall Blvd Parking,"2024 Seawall Boulevard, Galveston",-94.786074,29.292642,POINT (-94.786074 29.292642)
2027 Post Office St Parking,"540 Moody Avenue, Galveston",-94.7908453,29.3049496,POINT (-94.7908453 29.3049496)
2028 Mechanic St. Lot,"2028 Mechanic Street, Galveston",-94.7916201,29.3067625,POINT (-94.7916201 29.3067625)
208 22nd St Parking,"208 22nd Street, Galveston",-94.7933944,29.3071309,POINT (-94.7933944 29.3071309)
2083 Mechanic St Parking,"2083 Mechanic Street, Galveston",-94.7917033,29.3071712,POINT (-94.7917033 29.3071712)
2100 Market St. Parking Garage,"2100 Market Street, Galveston",-94.7918501,29.3061658,POINT (-94.7918501 29.3061658)
2190 Terminal Dr Parking,"2190 Terminal Drive, Galveston",-94.8539629,29.2669691,POINT (-94.8539629 29.2669691)
225 25th St Parking,"225 25th Street, Galveston",-94.796879,29.3058168,POINT (-94.796879 29.3058168)
23rd Street Station Piano Bar,"1706 23rd Street, Galveston",-94.7894671,29.2937028,POINT (-94.7894671 29.2937028)
25 Inn,"2108 25th Street, Galveston",-94.7906829,29.2896182,POINT (-94.7906829 29.2896182)
2608 Sealy Ave Parking,"2608 Sealy Avenue, Galveston",-94.7962016,29.3003026,POINT (-94.7962016 29.3003026)
3018 Texas Clipper Rd Parking,"3018 Texas Clipper Road, Galveston",-94.8171688,29.3157226,POINT (-94.8171688 29.3157226)
3BeachHouses,"17407 Termini-San Luis Pass Road, Galveston",-94.9838106,29.1760274,POINT (-94.9838106 29.1760274)
3G Fishing Charters,"9301 N Broadway Street, Galveston",-94.8739094,29.2885942,POINT (-94.8739094 29.2885942)
4523 Seawall Blvd Parking,"4523 Seawall Boulevard, Galveston",-94.8126046,29.2750797,POINT (-94.8126046 29.2750797)
51st Towing/Ace of Galveston,"4328 Winnie Street, Galveston",-94.8164712,29.2967918,POINT (-94.8164712 29.2967918)
5400 Seawall Boulevard Parking,"5400 Seawall Boulevard, Galveston",-94.8186599,29.2713047,POINT (-94.8186599 29.2713047)
600 26th St Parking,"600 26th Street, Galveston",-94.797186,29.3021002,POINT (-94.797186 29.3021002)
6303 Broadway St. Parking,"6303 Broadway Street, Galveston",-94.8405191,29.28783,POINT (-94.8405191 29.28783)
7 Palms,"25919 Glossy Ibis Way, Galveston",-95.0959682,29.1056361,POINT (-95.0959682 29.1056361)
71st Apartment,"1900 Biovu Dr, Galveston",-94.8364665,29.2784907,POINT (-94.8364665 29.2784907)
81st Dolphin Parking,"2801 Market Street, Galveston",-94.7997881,29.3036021,POINT (-94.7997881 29.3036021)
8701 Teichman Rd Parking,"8701 Teichman Road, Galveston",-94.8661714,29.282649,POINT (-94.8661714 29.282649)
99 CENT PLUS GAS,"1817 61st Street, Galveston",-94.8337893,29.2801323,POINT (-94.8337893 29.2801323)
A Bird's Eye View Condo at Diamond Beach,"10327 FM3005, Galveston",-94.8679827,29.243323,POINT (-94.8679827 29.243323)
A Bygone Era Historic Vacation Rental,"1903 Avenue L, Galveston",-94.7869368,29.299207,POINT (-94.7869368 29.299207)
A Great Escape,"4141 Pointe West Drive, Galveston",-95.0974127,29.102749,POINT (-95.0974127 29.102749)
A Green Earth Montessori,"6910 Yucca Drive, Galveston",-94.8390759,29.2707593,POINT (-94.8390759 29.2707593)
A Tropical Paradise,"7400 Jones Drive #2421, Galveston",-94.8460369,29.271794,POINT (-94.8460369 29.271794)
A-Affordable,"3402 Broadway Avenue J, Galveston",-94.8048815,29.2969957,POINT (-94.8048815 29.2969957)
A-B-Sea Cottage,"3929 4th Street, Galveston",-95.0701777,29.1273203,POINT (-95.0701777 29.1273203)
"AB Sea Sales and Rentals, Inc.","10811 Termini-San Luis Pass Road, Galveston",-94.8715804,29.2421779,POINT (-94.8715804 29.2421779)
Abadie Integrative Therapy,"6217 Central City Boulevard, Galveston",-94.82934,29.268491,POINT (-94.82934 29.268491)
ABC Precision Floors - Floor Contractor,"1309 Broadway Avenue J, Galveston",-94.7809035,29.3027304,POINT (-94.7809035 29.3027304)
Absolute Paradise Luxury Vacation Rental Condo,"7000 Seawall Boulevard #1031, Galveston",-94.8350469,29.261954,POINT (-94.8350469 29.261954)
Academy Sports + Outdoors,"4523 Fort Crockett Boulevard, Galveston",-94.8134292,29.2749963,POINT (-94.8134292 29.2749963)
Acapulco Beach,"18001 Termini-San Luis Pass Road, Galveston",-94.9900072,29.1722005,POINT (-94.9900072 29.1722005)
Adams League Historic Inn,"2314 Avenue M, Galveston",-94.7916334,29.2974427,POINT (-94.7916334 29.2974427)
Affaire d'Art Fine Art Gallery,"2227 Postoffice St, Galveston",-94.793165,29.304436,POINT (-94.793165 29.304436)
African-American Museum,"3427 Sealy Avenue, Galveston",-94.8059625,29.2973585,POINT (-94.8059625 29.2973585)
Aim School,"1408-1548 53rd Street, Galveston",-94.8243539,29.2862155,POINT (-94.8243539 29.2862155)
Airport Control Tower,"8710 Cessna Drive, Galveston",-94.8562417,29.263134,POINT (-94.8562417 29.263134)
Al's Authentic Paranormal Tours,"2315 Avenue H, Galveston",-94.7931377,29.3016154,POINT (-94.7931377 29.3016154)
Alcohol Drug Abuse Women's Center,"201 1st Street, Galveston",-94.7693013,29.3135393,POINT (-94.7693013 29.3135393)
Alia Benavides,"2201 Postoffice St, Galveston",-94.7926419,29.3046691,POINT (-94.7926419 29.3046691)
Allen Painting and Sandblasting,"1504 33rd Street #6829, Galveston",-94.8017422,29.2924607,POINT (-94.8017422 29.2924607)
Amadors painting servise,"11150 Termini-San Luis Pass Road, Galveston",-94.8769596,29.2406756,POINT (-94.8769596 29.2406756)
Ambassadors Preparatory Academy,"5001 Avenue U, Galveston",-94.818203,29.274333,POINT (-94.818203 29.274333)
Amco Auto Insurance | Seguros De Auto,"3620 Broadway Avenue J, Galveston",-94.808025,29.2962215,POINT (-94.808025 29.2962215)
American Baptist General Convention of Texas,"3003 Avenue M, Galveston",-94.7993035,29.2948381,POINT (-94.7993035 29.2948381)
"American Villas, LLC","2418 Sea Park Lane, Galveston",-94.7454717,29.3243437,POINT (-94.7454717 29.3243437)
Americas Best Value Inn,"3008 Seawall Boulevard, Galveston",-94.7961098,29.2847884,POINT (-94.7961098 29.2847884)
Ampco System Parking,"Parking lot, 2200 Harborside Drive, Galveston",-94.7935826,29.3090517,POINT (-94.7935826 29.3090517)
Amy Lane,"2029 The Strand, Galveston",-94.7919144,29.3076743,POINT (-94.7919144 29.3076743)
Amy's Classic Beauty,"7019 Lasker Drive #1632, Galveston",-94.8351669,29.2632484,POINT (-94.8351669 29.2632484)
Anderson Ways,Galveston,-94.9063099,29.2607934,POINT (-94.9063099 29.2607934)
Andrade Liliana C MD,"RR 460, Galveston",-94.7772493,29.3106102,POINT (-94.7772493 29.3106102)
"Anello J. D'ambra, DC","2006 45th Street, Galveston",-94.8139753,29.2844157,POINT (-94.8139753 29.2844157)
Angel Cradling Bunny,"1124 37th Street, Galveston",-94.8072667,29.2942306,POINT (-94.8072667 29.2942306)
Angler Charters,"715 North Holiday Drive, Galveston",-94.775648,29.317741,POINT (-94.775648 29.317741)
ANNE LANE GALLERY,"3818 Avenue S, Galveston",-94.8055317,29.282381,POINT (-94.8055317 29.282381)
Annie Lee - BOTWG,"26421 Cat Tail Drive, Galveston",-95.1000791,29.1003846,POINT (-95.1000791 29.1003846)
Antigua Apartments,"8008 Seawall Blvd, Galveston",-94.845051,29.2565281,POINT (-94.845051 29.2565281)
Anton’s Beach Paradise,"7700 Seawall Blvd, Galveston",-94.8420582,29.2582523,POINT (-94.8420582 29.2582523)
Apartments on Strand,"2, 2118 1, The Strand, Galveston",-94.792805,29.3077515,POINT (-94.792805 29.3077515)
Apostolic Firehouse,"3710 Broadway Avenue J, Galveston",-94.808635,29.296099,POINT (-94.808635 29.296099)
Applique,"The Tremont House, Galveston",-94.7948095,29.3062164,POINT (-94.7948095 29.3062164)
Aqua La Vista,"3915 Kiva Road, Galveston",-95.0030074,29.1698963,POINT (-95.0030074 29.1698963)
Aqua View @ Seascape,"10811 Termini-San Luis Pass Road #1113, Galveston",-94.8712812,29.2418638,POINT (-94.8712812 29.2418638)
Aquarela Pointe San Luis,"25046 Sausalito Drive, Galveston",-95.085742,29.1139291,POINT (-95.085742 29.1139291)
Arbor E & T,"4700 Broadway Avenue J # B101, Galveston",-94.8198146,29.2941247,POINT (-94.8198146 29.2941247)
Argonauta,"18803 West De Vaca Lane, Galveston",-94.9997789,29.1655427,POINT (-94.9997789 29.1655427)
Art League,"2117a Postoffice Street, Galveston",-94.7918334,29.304719,POINT (-94.7918334 29.304719)
Arthur's Beach & Bay Vacation Rentals,"26570 Baywater Drive, Galveston",-95.1055512,29.102259,POINT (-95.1055512 29.102259)
Arthur's Beachfront Bliss,"4151 Pointe West Drive #201, Galveston",-95.0974085,29.1022569,POINT (-95.0974085 29.1022569)
Arthur's Sea Shack in Sea Isle,"3827 Antascosa Key, Galveston",-95.0462029,29.1460397,POINT (-95.0462029 29.1460397)
Artist Boat,"13330 Settegast Road, Galveston",-94.9322788,29.2226456,POINT (-94.9322788 29.2226456)
Arts on Mechanic,"2309 Mechanic Street, Galveston",-94.7944691,29.3060921,POINT (-94.7944691 29.3060921)
Asbestos Control of Texas Inc,"3228 Bernardo De Galvez Avenue, Galveston",-94.8006407,29.2893683,POINT (-94.8006407 29.2893683)
Ashton Place Apartments,"3219 69th St, Galveston",-94.8364858,29.2655199,POINT (-94.8364858 29.2655199)
AT&T Store,"6105 Stewart Road Suite A, Galveston",-94.8307227,29.2744075,POINT (-94.8307227 29.2744075)
ATM,"2502 45th Street, Galveston",-94.8124374,29.2801259,POINT (-94.8124374 29.2801259)
Atmosphere the salon and beyond,"1221 23rd Street, Galveston",-94.7913345,29.2976693,POINT (-94.7913345 29.2976693)
Attitude Adjustment,"11218 Reagor Way, Galveston",-94.8831141,29.2370979,POINT (-94.8831141 29.2370979)
Austin Middle School,"1514 Ursuline Street, Galveston",-94.7818738,29.2978521,POINT (-94.7818738 29.2978521)
Ave. P Cottage - Vacation Rental,"3600 Bernardo De Galvez Avenue, Galveston",-94.8043883,29.2884419,POINT (-94.8043883 29.2884419)
Avenue L Baptist Church,"2612 Avenue L, Galveston",-94.7954904,29.29729,POINT (-94.7954904 29.29729)
Avenue O Bed and Breakfast,"2323 Avenue O, Galveston",-94.7905897,29.2934753,POINT (-94.7905897 29.2934753)
Aver Cottage in Galveston,"4126 Avenue R, Galveston",-94.8097829,29.2831742,POINT (-94.8097829 29.2831742)
Azure Dreams,"10811 Termini-San Luis Pass Rd #2322, Galveston",-94.8711848,29.2422439,POINT (-94.8711848 29.2422439)
B J Services Completions,"1300 Coast Wide Dr, Galveston",-94.7841874,29.3233364,POINT (-94.7841874 29.3233364)
B&R,"2112 25th Street, Galveston",-94.7906194,29.2895461,POINT (-94.7906194 29.2895461)
Babe beach,"6285 Seawall Boulevard, Galveston",-94.8272966,29.2657108,POINT (-94.8272966 29.2657108)
Babes Beach,"6477 Seawall Blvd Galveston, TX 77551",-94.8299088756065,29.2645060135914,POINT (-94.8299088756065 29.2645060135914)
Backbay Emporium,"1513 19th Street, Galveston",-94.7858411,29.2962791,POINT (-94.7858411 29.2962791)
Bahama Breeze Galveston,"22006 Deaf Smith Drive, Galveston",-95.0520327,29.1444591,POINT (-95.0520327 29.1444591)
Bail America Bail Bonds,"5316 Broadway Avenue J, Galveston",-94.8275943,29.2915508,POINT (-94.8275943 29.2915508)
Bait Daddys,"17630 Termini-San Luis Pass Road, Galveston",-94.9883084,29.1741438,POINT (-94.9883084 29.1741438)
Baker Hughes,"1300 Coastwide Road, Galveston",-94.7870845,29.3246388,POINT (-94.7870845 29.3246388)
Bamboo,"1205 Church Street, Galveston",-94.7808692,29.306683,POINT (-94.7808692 29.306683)
Bank of America ATM (Drive-thru),"6311 Central City Boulevard, Galveston",-94.8302525,29.2685725,POINT (-94.8302525 29.2685725)
Bare Feet Retreat,"23165 Gulf Drive, Galveston",-95.0612892,29.126982,POINT (-95.0612892 29.126982)
Bargain Beachwear,"4708 Seawall Boulevard, Galveston",-94.8132517,29.2744262,POINT (-94.8132517 29.2744262)
"Bay Area Council, Boy Scouts of America","3020 53rd Street, Galveston",-94.8198611,29.2733128,POINT (-94.8198611 29.2733128)
Bay Front Escape,"26731 Baywater Drive, Galveston",-95.1075221,29.099181,POINT (-95.1075221 29.099181)
"Bay Point Builders, Inc.","12601 Termini-San Luis Pass Road, Galveston",-94.91163,29.2191831,POINT (-94.91163 29.2191831)
Bay Side Campsite,Galveston,-94.9553701,29.2106105,POINT (-94.9553701 29.2106105)
Baymont by Wyndham Galveston,"2826 63rd Street, Galveston",-94.8291028,29.2677838,POINT (-94.8291028 29.2677838)
Bayside at Waterman's,"14302 Stewart Road, Galveston",-94.9492543,29.20742,POINT (-94.9492543 29.20742)
Bayside Bungalow,"4127 Jackson, Galveston",-95.046035,29.1405487,POINT (-95.046035 29.1405487)
Bayside Event Center,"1723 61st Street, Galveston",-94.8345265,29.2816452,POINT (-94.8345265 29.2816452)
Bayside Sanctuary Vacation Rental,"3754 Concho Key, Galveston",-95.0452761,29.1482517,POINT (-95.0452761 29.1482517)
Bayside Storage Inc,"17616 Termini-San Luis Pass Road, Galveston",-94.9881407,29.175225,POINT (-94.9881407 29.175225)
Bayview Beauty - BOTWG,"26540 Mangrove Drive, Galveston",-95.1044768,29.101981,POINT (-95.1044768 29.101981)
Baywatch Dolphin Tours,"2100 Harborside Drive, Galveston",-94.7927881,29.3092853,POINT (-94.7927881 29.3092853)
Beach,"22501 Kennedy Drive, Galveston",-95.0519419,29.1331316,POINT (-95.0519419 29.1331316)
Beach Access Point 11,"12603 West Buena Vista Dr Galveston, TX 77554",-94.9097950157301,29.2188773679888,POINT (-94.9097950157301 29.2188773679888)
Beach Front Paradise,"4413 Tampico Way, Galveston",-94.988974,29.1721906,POINT (-94.988974 29.1721906)
Beach Pocket Park,"11102 Termini-San Luis Pass Road, Galveston",-94.8812014,29.2378261,POINT (-94.8812014 29.2378261)
Beach Rental,"4131 Pointe West Drive, Galveston",-95.0979168,29.1029924,POINT (-95.0979168 29.1029924)
Beach Therapy,"17631 Glei, Galveston",-94.9867305,29.1732069,POINT (-94.9867305 29.1732069)
Beach Town Tours (operating at 1524 8 Mile Road),"18043 Shaman Road, Galveston",-94.9948956,29.1736247,POINT (-94.9948956 29.1736247)
Beach Tree Motel,"3126 Avenue S, Galveston",-94.7976792,29.2845773,POINT (-94.7976792 29.2845773)
Beach Villa Pointe West Resort,"4221 Pointe West Drive, Galveston",-95.0986334,29.1020683,POINT (-95.0986334 29.1020683)
Beachcomber Inn,"2825 61st Street, Galveston",-94.8282885,29.2684395,POINT (-94.8282885 29.2684395)
Beachfront,"711 27th Street, Galveston",-94.7977277,29.3013582,POINT (-94.7977277 29.3013582)
BEACHFRONT PALMS HOTEL,"5914 Seawall Boulevard, Galveston",-94.8249681,29.2682874,POINT (-94.8249681 29.2682874)
Beachfront Paradise - BOTWG,"4151 Pointe West Drive, Galveston",-95.0974127,29.1022958,POINT (-95.0974127 29.1022958)
Beachfront Rose,"18911 West De Vaca Lane, Galveston",-95.001485,29.1642745,POINT (-95.001485 29.1642745)
Beachtown Galveston,"630 Beachtown Drive, Galveston",-94.7502288,29.3195256,POINT (-94.7502288 29.3195256)
Beau Soleil,"21901 Kennedy Drive, Galveston",-95.0451481,29.1376276,POINT (-95.0451481 29.1376276)
"Behrens Residential Elevators and Lifts, LLC.","2902 Avenue R 1/2, Galveston",-94.795068,29.2861522,POINT (-94.795068 29.2861522)
Bel's Upholstery,"3615 Broadway Avenue J, Galveston",-94.8075072,29.2958062,POINT (-94.8075072 29.2958062)
Bella Vita - BOTWG,"4211 Pointe West Drive, Galveston",-95.0983486,29.1017618,POINT (-95.0983486 29.1017618)
Ben Roeder Law,"1228 16th Street, Galveston",-94.7829223,29.2996799,POINT (-94.7829223 29.2996799)
bermuda beach,"Bermuda Beach, Galveston",-94.9240882,29.2094059,POINT (-94.9240882 29.2094059)
Bermuda Beach Improvement Committee,"12936 John Reynolds Road, Galveston",-94.9167347,29.215674,POINT (-94.9167347 29.215674)
Best of the West Galveston,"4161 Pointe West Drive, Galveston",-95.097901,29.1023679,POINT (-95.097901 29.1023679)
Best Western Plus Galveston Suites,"8502 Seawall Boulevard, Galveston",-94.849593,29.2538627,POINT (-94.849593 29.2538627)
Best Western Plus Seawall Inn & Suites By The Beach,"102 Seawall Boulevard, Galveston",-94.7679046,29.3111696,POINT (-94.7679046 29.3111696)
Bible Baptist Church,"7021 Avenue P 1/2, Galveston",-94.8418754,29.2748431,POINT (-94.8418754 29.2748431)
Big Wave Surf Co.,"2404 38th Street, Galveston",-94.8045001,29.2832449,POINT (-94.8045001 29.2832449)
Bills Pad in Galveston,"7000 Seawall Boulevard, Galveston",-94.8351017,29.262074,POINT (-94.8351017 29.262074)
"Billy Davis, LMT","1721 23rd Street, Galveston",-94.7898235,29.2931761,POINT (-94.7898235 29.2931761)
Birds Of Paradise Cleaning Service,"5417 Bernardo De Galvez Avenue, Galveston",-94.8253458,29.2823918,POINT (-94.8253458 29.2823918)
"BlackBox Partners, LLC","3326 Avenue East, Galveston",-94.8223009,29.2970472,POINT (-94.8223009 29.2970472)
Bleu Haus Beach House,"4008 Avenue O, Galveston",-94.8097999,29.2888725,POINT (-94.8097999 29.2888725)
Blue Beach House,"3520 Avenue S, Galveston",-94.8018018,29.2824626,POINT (-94.8018018 29.2824626)
Blue Heron Vacation Rental,"23123 Fresca Street, Galveston",-95.0604893,29.1299171,POINT (-95.0604893 29.1299171)
Blue Marlin Beach House Rental,"3631 Antascosa Key, Galveston",-95.0478098,29.1481052,POINT (-95.0478098 29.1481052)
Blue Pearl,"9520 Seawall Boulevard #114, Galveston",-94.8597063,29.2487222,POINT (-94.8597063 29.2487222)
Blue Sky Cottage,"25111 Intrepid Lane, Galveston",-95.0858598,29.1121382,POINT (-95.0858598 29.1121382)
Bluefin Galveston - Luxury Vacation Rental,"4119 Royal Tern Lane, Galveston",-95.0904892,29.1091585,POINT (-95.0904892 29.1091585)
Bluewater Beachhouse,"4142 King Rail Circle, Galveston",-95.0893364,29.1089689,POINT (-95.0893364 29.1089689)
Boardroom bar,"63rd Rear Street, Galveston",-94.8303846,29.2667624,POINT (-94.8303846 29.2667624)
Bob Davis Paint & Drywall Inc,Galveston,-94.8432731,29.27432,POINT (-94.8432731 29.27432)
Bogan Gallery,"2217 Postoffice St, Galveston",-94.7929354,29.3044721,POINT (-94.7929354 29.3044721)
Bolivar peninsula oil rig,Galveston,-94.7977277,29.3013582,POINT (-94.7977277 29.3013582)
Boost Mobile,"4905 Broadway Avenue J, Galveston",-94.8219516,29.2918273,POINT (-94.8219516 29.2918273)
"Bosworth Air Conditioning & Heating, Inc.","1213 14th Street, Galveston",-94.7810662,29.300396,POINT (-94.7810662 29.300396)
Boutique Bungalow,"1812 37th Street, Galveston",-94.8053447,29.288504,POINT (-94.8053447 29.288504)
Bradford Thomas C DDS,"1801 Broadway Avenue J, Galveston",-94.7863267,29.3012448,POINT (-94.7863267 29.3012448)
Brewster Key,"3722 Brewster Key, Galveston",-95.0465211,29.1475514,POINT (-95.0465211 29.1475514)
Brian Stanton Associates,"1815 Avenue H, Galveston",-94.7873744,29.3030585,POINT (-94.7873744 29.3030585)
BROADWAY CITGO,"2227 Broadway Avenue J, Galveston",-94.7916031,29.2999225,POINT (-94.7916031 29.2999225)
Brooks Magdalena MD,"301 University Boulevard, Galveston",-94.7758738,29.3107498,POINT (-94.7758738 29.3107498)
Broome Welding & Machine Co,"7909 Bayside Avenue, Galveston",-94.8613204,29.2896327,POINT (-94.8613204 29.2896327)
Bryan Manuele,"2728 Avenue Q, Galveston",-94.7943433,29.2891061,POINT (-94.7943433 29.2891061)
Buccaneer Marine,"2001 Seawolf Park Boulevard, Galveston",-94.7979913,29.3232355,POINT (-94.7979913 29.3232355)
Bucks Bar,"2409 Market Street, Galveston",-94.795262,29.304828,POINT (-94.795262 29.304828)
Buckshot Saloon,"2409 Market Street, Galveston",-94.7952778,29.3047222,POINT (-94.7952778 29.3047222)
Buddy's Baywater,"26560 Baywater Drive, Galveston",-95.1061745,29.1013433,POINT (-95.1061745 29.1013433)
Bueso Elisa DDS,"1801 Broadway Avenue J, Galveston",-94.7863267,29.3012448,POINT (-94.7863267 29.3012448)
Build-A-Bear Workshop,"5310 Seawall Boulevard A, Galveston",-94.8203913,29.2712143,POINT (-94.8203913 29.2712143)
Burnet Elementary Parking Lot,"5511 Avenue S, Galveston",-94.824815,29.27637,POINT (-94.824815 29.27637)
Burnet Elementary School,"5501 Avenue S, Galveston",-94.8240831,29.276497,POINT (-94.8240831 29.276497)
Busters Old Time Photos Galveston Texas,"2217 The Strand #105, Galveston",-94.7941601,29.3070637,POINT (-94.7941601 29.3070637)
Calypso Cottage,"26540 Mangrove Drive, Galveston",-95.1044768,29.101981,POINT (-95.1044768 29.101981)
Cammarn Lawn & Tractor LLC,"11556 Homrighaus Road, Galveston",-94.9013611,29.2431692,POINT (-94.9013611 29.2431692)
Campa de Pesca,"3815 Tradewinds Drive, Galveston",-95.0711697,29.1302135,POINT (-95.0711697 29.1302135)
"Candlewood Suites Galveston, an IHG Hotel","808 61st Street C, Galveston",-94.8379063,29.289885,POINT (-94.8379063 29.289885)
Captain Experiences Fishing Charters,"715 North Holiday Drive, Galveston",-94.776981,29.317168,POINT (-94.776981 29.317168)
Captain's Landing Apartments,"3102 69th Street, Galveston",-94.8354362,29.2679327,POINT (-94.8354362 29.2679327)
Captain's Paradise Beach House Rental,"12023 Sand Dollar Beach Drive, Galveston",-94.903394,29.222881,POINT (-94.903394 29.222881)
Captains Cove Resort Condos,"7600 Seawall Blvd, Galveston",-94.8408567,29.2591677,POINT (-94.8408567 29.2591677)
Cardtronics ATM,"1228 39th Street, Galveston",-94.8093049,29.2928531,POINT (-94.8093049 29.2928531)
Carlos Cabeza Cigar Shop,"318 27th Street, Galveston",-94.7984292,29.3044979,POINT (-94.7984292 29.3044979)
Carlos Tire Shop,"4520 Broadway Avenue J, Galveston",-94.8179372,29.2936892,POINT (-94.8179372 29.2936892)
Carnival Cruises Port,"2502 Harborside Drive, Galveston",-94.7976018,29.3080066,POINT (-94.7976018 29.3080066)
"Carquest Auto Parts - ENGLISH COLOR AND SUPPLY, LLC","2826 Broadway Avenue J, Galveston",-94.7986689,29.2987941,POINT (-94.7986689 29.2987941)
Carr Coastal Services,"53rd Street, Galveston",-94.8236579,29.2831383,POINT (-94.8236579 29.2831383)
Carr Mansion,"1103 33rd Street, Galveston",-94.8034299,29.2958158,POINT (-94.8034299 29.2958158)
Cars and Carts Galveston,"2402 Seawall Boulevard, Galveston",-94.7897034,29.2890817,POINT (-94.7897034 29.2890817)
Caruso Red LLC,"1126 Church Street, Galveston",-94.7804761,29.3073141,POINT (-94.7804761 29.3073141)
Casa Azul,"4134 Green Heron Drive, Galveston",-95.0891737,29.1101533,POINT (-95.0891737 29.1101533)
Casa Caribe Apartments,"515 1st Street, Galveston",-94.7689518,29.311152,POINT (-94.7689518 29.311152)
Casa Del Costa,"4119 King Rail Circle, Galveston",-95.0897433,29.1098145,POINT (-95.0897433 29.1098145)
Casa Del Mar Beachfront Suites,"6102 Seawall Boulevard, Galveston",-94.827354,29.266797,POINT (-94.827354 29.266797)
Casa Familia - Galveston,"1407 Broadway Avenue J, Galveston",-94.7820118,29.3023971,POINT (-94.7820118 29.3023971)
Casa Pura Vida Galveston,"22811 Vida Street, Galveston",-95.0593808,29.1355989,POINT (-95.0593808 29.1355989)
Cash Mortgage Services,"7016 Williams Drive, Galveston",-94.8366309,29.2642445,POINT (-94.8366309 29.2642445)
"Casita Azul - Pup Friendly Carriage House 2 Blocks from Seawall, Gulf and Beach!","1908 Avenue O 1/2, Galveston",-94.7853957,29.2942801,POINT (-94.7853957 29.2942801)
Castillo. Bishop,Galveston,-94.7977277,29.3013582,POINT (-94.7977277 29.3013582)
Cathedral of Faith-Market Street Baptist Church,"2901 Market Street, Galveston",-94.8008848,29.3033808,POINT (-94.8008848 29.3033808)
Catholic Charities,"4700 Broadway Avenue J suite f-103, Galveston",-94.8195835,29.2941968,POINT (-94.8195835 29.2941968)
Catsmews,"21518 Kennedy, Galveston",-95.0403746,29.1403583,POINT (-95.0403746 29.1403583)
CC & EE LLC,"1621 23rd Street, Galveston",-94.7900965,29.294142,POINT (-94.7900965 29.294142)
Cdreamsonthebeach,"17621 Termini-San Luis Pass Road, Galveston",-94.9868976,29.1739782,POINT (-94.9868976 29.1739782)
Cedars at Carver Park,"2915 Avenue H, Galveston",-94.8001875,29.2996872,POINT (-94.8001875 29.2996872)
Cedarwood,"2011 52nd Street, Galveston",-94.8222963,29.2821223,POINT (-94.8222963 29.2821223)
Central Cultural Center,"2627 Avenue M, Galveston",-94.7953872,29.2961096,POINT (-94.7953872 29.2961096)
Chateau Del Mar,"4161 Pointe West Drive, Galveston",-95.0980245,29.1023941,POINT (-95.0980245 29.1023941)
Chateau Lafitte Townhomes,"711 Holiday Dr, Galveston",-94.7716533,29.3078706,POINT (-94.7716533 29.3078706)
Chateau Soleil Vacation Rental,"12424 East Ventura Drive, Galveston",-94.9081542,29.220052,POINT (-94.9081542 29.220052)
Chelsea Cottage At Pleasure Pier,"2608 Avenue Q 1/2, Galveston",-94.7922964,29.2887406,POINT (-94.7922964 29.2887406)
Chevron,"2502 45th Street, Galveston",-94.8124706,29.2801474,POINT (-94.8124706 29.2801474)
Chevron Galveston,"6102 Stewart Road, Galveston",-94.8318521,29.2756464,POINT (-94.8318521 29.2756464)
Chico Tile,"4613 Broadway Avenue J, Galveston",-94.8188082,29.292672,POINT (-94.8188082 29.292672)
Child Protective Services,"123 25th Street, Galveston",-94.7970765,29.3065514,POINT (-94.7970765 29.3065514)
Childrens Center,"1424 45th Street, Galveston",-94.815582,29.2896414,POINT (-94.815582 29.2896414)
Childrens Coalition,"5127 Avenue U, Galveston",-94.8195425,29.2742785,POINT (-94.8195425 29.2742785)
Chill At The Shores LLC.,"6300 Seawall Boulevard #9115, Galveston",-94.8299235,29.2651944,POINT (-94.8299235 29.2651944)
Chiquita Bay Vacation Rental,"22803 Chiquita Street, Galveston",-95.0605735,29.1379743,POINT (-95.0605735 29.1379743)
Christian Women’s Job Corps,"1310 Martin Luther King Blvd & 29th Street, Galveston",-94.8008396,29.3037885,POINT (-94.8008396 29.3037885)
Christina Sullivan Foundation,"4116 Avenue, Avenue North 1/2 Suite 106, Galveston",-94.8134822,29.2885095,POINT (-94.8134822 29.2885095)
CHRISTUS Our Daily Bread,"2420 Winnie Street, Galveston",-94.794786,29.302559,POINT (-94.794786 29.302559)
Chunky Funky Monkey Blinds and Design,"6502 Stewart Road, Galveston",-94.8352048,29.2739987,POINT (-94.8352048 29.2739987)
Church For The Unchurched,"2915 Avenue M 1/2, Galveston",-94.7981866,29.294285,POINT (-94.7981866 29.294285)
Citgo,"8224 Harborside Drive, Galveston",-94.8634276,29.2868547,POINT (-94.8634276 29.2868547)
City of Galveston - 30th St Pumping Station,"3002 Church Street, Galveston",-94.8020436,29.3017565,POINT (-94.8020436 29.3017565)
Clarion Pointe,"2300 Seawall Boulevard, Galveston",-94.7890809,29.2899644,POINT (-94.7890809 29.2899644)
Classic Auto Group Galveston Service & Parts,"8020 Broadway Street, Galveston",-94.8609308,29.2862472,POINT (-94.8609308 29.2862472)
Classic Ford Galveston,"7700 Broadway Street, Galveston",-94.8579418,29.2871097,POINT (-94.8579418 29.2871097)
Classic Honda Galveston,"8102 Broadway Street, Galveston",-94.861929,29.286308,POINT (-94.861929 29.286308)
Coastal Cottages,"1102 8th Street, Galveston",-94.7742453,29.3034311,POINT (-94.7742453 29.3034311)
Coastal Decks & Cargo Lifts,"24039 Termini-San Luis Pass Road, Galveston",-95.0713036,29.1203975,POINT (-95.0713036 29.1203975)
Coastal Health & Wellness - Galveston,"4700 Broadway Avenue J, Galveston",-94.8198145,29.2941247,POINT (-94.8198145 29.2941247)
Coastal Sunrise-Coastal Waves Vacations,"25047 Sausalito Drive, Galveston",-95.0853182,29.1137211,POINT (-95.0853182 29.1137211)
Coastal Vibes Texas,"4020 Oleander Drive, Galveston",-94.9457256,29.201364,POINT (-94.9457256 29.201364)
Colonial Square Apartments,"402 Postoffice St, Galveston",-94.772291,29.3103784,POINT (-94.772291 29.3103784)
Comfort Inn & Suites Beachfront,"6302 Seawall Boulevard, Galveston",-94.828926,29.266316,POINT (-94.828926 29.266316)
Comfort Suites,"3606 89th Street, Galveston",-94.853223,29.2533079,POINT (-94.853223 29.2533079)
Commodore on the beach,"37th Street, Galveston",-94.8026424,29.2805956,POINT (-94.8026424 29.2805956)
Condo Di Cocco,"6426-0000-0001, 1628 Seawall Boulevard #000, Galveston",-94.7824886,29.2948719,POINT (-94.7824886 29.2948719)
Construction Services and Designs,"3216 Avenue L, Galveston",-94.8025087,29.2955671,POINT (-94.8025087 29.2955671)
Contract Parking,"339 5th Street, Galveston",-94.7738605,29.3111501,POINT (-94.7738605 29.3111501)
cool beachouse,"Seawall Blvd, Galveston",-94.8030941,29.2800444,POINT (-94.8030941 29.2800444)
Coonfield Kimberly MD,"301 University Boulevard, Galveston",-94.7758738,29.3107498,POINT (-94.7758738 29.3107498)
Coppersmith Inn B & B,"1914 Avenue M, Galveston",-94.7870645,29.2986478,POINT (-94.7870645 29.2986478)
Coral Cottage,"4018 1st Street, Galveston",-95.0670321,29.1273832,POINT (-95.0670321 29.1273832)
Coral Reef Beachside Rental,"4123 Las Palmas Street, Galveston",-94.9441911,29.2013886,POINT (-94.9441911 29.2013886)
coronado palms Coastal Cottage,"3530 Avenue S, Galveston",-94.8024597,29.2832625,POINT (-94.8024597 29.2832625)
Cottage de Galvez,"2802 Bernardo De Galvez Avenue, Galveston",-94.795334,29.2907562,POINT (-94.795334 29.2907562)
"Country Inn & Suites by Radisson, Galveston Beach, TX","2818 Avenue R 1/2, Galveston",-94.7944754,29.2863422,POINT (-94.7944754 29.2863422)
County Commissioners,"600 59th Street, Galveston",-94.8335879,29.2927427,POINT (-94.8335879 29.2927427)
"Courtney M. Townsend, Jr., MD","301 University Boulevard, Galveston",-94.7758738,29.3107498,POINT (-94.7758738 29.3107498)
Courtyard by Marriott Galveston Island,"9550 Seawall Boulevard, Galveston",-94.860223,29.24777,POINT (-94.860223 29.24777)
Cozy Beach Bungalow,"1427 16th Street, Galveston",-94.7826909,29.2978076,POINT (-94.7826909 29.2978076)
"Cozy Condo, Galveston Seawall, Gulf View","6300 Seawall Boulevard, Galveston",-94.8296392,29.2655873,POINT (-94.8296392 29.2655873)
Creative Digital Photography,"6428 Stewart Road, Galveston",-94.8349855,29.2740973,POINT (-94.8349855 29.2740973)
Crescent Electric Co,"4113 Avenue S, Galveston",-94.8085992,29.2811206,POINT (-94.8085992 29.2811206)
Cricket Wireless Authorized Retailer,"2621 Broadway Avenue J, Galveston",-94.7962878,29.2987177,POINT (-94.7962878 29.2987177)
Crow's Nest,"9420 Seawall Boulevard, Galveston",-94.8583892,29.2485825,POINT (-94.8583892 29.2485825)
Cruise Park,"2815 Harborside Drive, Galveston",-94.8009659,29.3060306,POINT (-94.8009659 29.3060306)
Cruise Parking Express Lot,"106 28th Street, Galveston",-94.8010348,29.3072849,POINT (-94.8010348 29.3072849)
Cruises From Galveston,"2727 Broadway Avenue J, Galveston",-94.7975378,29.298273,POINT (-94.7975378 29.298273)
"Crystal A. Talavera, WHCNP","301 University Boulevard, Galveston",-94.7758738,29.3107498,POINT (-94.7758738 29.3107498)
Crystal Beach HVAC,"2110 26th Street, Galveston",-94.791911,29.2891785,POINT (-94.791911 29.2891785)
Custom App Developers,"1823 40th Street, Galveston",-94.8090967,29.2872247,POINT (-94.8090967 29.2872247)
CVS Pharmacy,"6128 Broadway Street, Galveston",-94.8404063,29.2910348,POINT (-94.8404063 29.2910348)
DARKE gallery,"801 East Beach Drive BC 0612, Galveston",-94.7546711,29.3158378,POINT (-94.7546711 29.3158378)
Dat View Tho,"21822 Termini-San Luis Pass Road, Galveston",-95.044971,29.1385793,POINT (-95.044971 29.1385793)
David Glenn Hunt Memorial Library,"4015 Avenue Q, Galveston",-94.807822,29.284711,POINT (-94.807822 29.284711)
DAVID MULLICAN ARCHITECT INC,"1622 Market Street, Galveston",-94.786615,29.3074343,POINT (-94.786615 29.3074343)
DaVita Island Dialysis,"5920 Broadway Avenue J, Galveston",-94.8352539,29.2897406,POINT (-94.8352539 29.2897406)
Days Inn & Suites by Wyndham Galveston West/Seawall,"8712 Seawall Boulevard, Galveston",-94.8522661,29.2544416,POINT (-94.8522661 29.2544416)
Daystar Auto Sales,"4327 Broadway Avenue J, Galveston",-94.8157269,29.2934448,POINT (-94.8157269 29.2934448)
Deep South Woodworking,"5313 Perry Avenue, Galveston",-94.8249289,29.2851896,POINT (-94.8249289 29.2851896)
Dellanera RV Park,"10901 Termini-San Luis Pass Road, Galveston",-94.8733291,29.2408905,POINT (-94.8733291 29.2408905)
Delta Apartments,"3003 Broadway Avenue J, Galveston",-94.8002926,29.2974855,POINT (-94.8002926 29.2974855)
Dept of Homeland Security,"601 25th Street, Galveston",-94.7959433,29.3024269,POINT (-94.7959433 29.3024269)
Design A Case,"301 University Boulevard, Galveston",-94.7758738,29.3107498,POINT (-94.7758738 29.3107498)
Diamond Beach Galveston,"Sea Isle (Mailing, 21502 Termini-San Luis Pass Road #6240, Galveston",-95.0397949,29.1408004,POINT (-95.0397949 29.1408004)
Diamond Beach Vacation Rentals,"10327 Termini San Luis Pass Rd Galveston, TX 77554",-94.86803,29.24307,POINT (-94.86803 29.24307)
Diana’s Bartique,"2425 The Strand Suite 100, Galveston",-94.796433,29.3065105,POINT (-94.796433 29.3065105)
Direct Shutter Inc.,"4820 Pine Street, Galveston, TX",-94.8388148,29.2616688,POINT (-94.8388148 29.2616688)
Discount Cruise Parking,"433 33rd Street, Galveston",-94.8054081,29.3019206,POINT (-94.8054081 29.3019206)
Discover Galveston Texas,"2228 Mechanic Street #204, Galveston",-94.7938892,29.306502,POINT (-94.7938892 29.306502)
Discovery Bayhouse,"21820 Deaf Smith Drive, Galveston",-95.0503054,29.145512,POINT (-95.0503054 29.145512)
Docs Quarters at the Seawall,"7000 Seawall Boulevard #534, Galveston",-94.8351132,29.2620681,POINT (-94.8351132 29.2620681)
Doguet Lisa M MD,"301 University Boulevard, Galveston",-94.7758738,29.3107498,POINT (-94.7758738 29.3107498)
DolEx Dollar Express,"3614 Broadway Avenue J, Galveston",-94.8076683,29.2963373,POINT (-94.8076683 29.2963373)
Dolphin Manor,"Dolphin Avenue, Galveston",-94.7710278,29.3176359,POINT (-94.7710278 29.3176359)
Domum de Vencé,"1701 Market Street, Galveston",-94.7870719,29.3069433,POINT (-94.7870719 29.3069433)
Dos Vacas Muertas Bird Sanctuary,"Seabird Drive, Galveston",-95.0406795,29.1458973,POINT (-95.0406795 29.1458973)
DoubleTree by Hilton Hotel Galveston Beach,"1702 Seawall Boulevard, Galveston",-94.783245,29.2945607,POINT (-94.783245 29.2945607)
Doug's place,"2221 29th St, Galveston",-94.7954253,29.2873817,POINT (-94.7954253 29.2873817)
Downtowner Inn,Galveston,-94.7977277,29.3013582,POINT (-94.7977277 29.3013582)
"Dr. Aaron Mohanty, MD","301 University Boulevard, Galveston",-94.7758738,29.3107498,POINT (-94.7758738 29.3107498)
"Dr. Abbey B. Berenson, MD","400 Avenue East, Galveston",-94.8217855,29.2972865,POINT (-94.8217855 29.2972865)
Dr. David Raimer,"1501 Broadway Avenue J, Galveston",-94.7829683,29.3020762,POINT (-94.7829683 29.3020762)
"Dr. Hans M. Vonmarensdorff, MD","400 Harborside Drive, Galveston",-94.7747075,29.3148866,POINT (-94.7747075 29.3148866)
"Dr. Kenneth S. Gluski, DDS - Family Dentistry and Orthodontics","1025 25th Street, Galveston",-94.7943151,29.2985885,POINT (-94.7943151 29.2985885)
Dr. Sonia Magruder - Board Certified Galveston Orthodontist,"3310 Avenue O, Galveston",-94.801904,29.2909595,POINT (-94.801904 29.2909595)
Earth Creations Landscaping,"8425 Broadway Street, Galveston",-94.8647559,29.28493,POINT (-94.8647559 29.28493)
East Beach,"1837 East Beach Street, Galveston",-94.7476048,29.3212194,POINT (-94.7476048 29.3212194)
East Beach (R.A. Apffel),"1923 Boddeker Road, Galveston",-94.7333911,29.328292,POINT (-94.7333911 29.328292)
East End Historical District Association,"1501 Postoffice Street, Galveston",-94.7849881,29.3079931,POINT (-94.7849881 29.3079931)
East End Lagoon Nature Preserve,"Boddeker Road, Galveston",-94.745349,29.3336509,POINT (-94.745349 29.3336509)
Easterwood Architects Studio,"123 Rosenberg Street, Galveston",-94.7970765,29.3065514,POINT (-94.7970765 29.3065514)
Eat Sleep Beach Luxury Redefined,"9520 Seawall Boulevard APT 352, Galveston",-94.85971,29.24872,POINT (-94.85971 29.24872)
Ebbtide Apartments,"100 Market St, Galveston",-94.7692165,29.3121201,POINT (-94.7692165 29.3121201)
Ed Brooks Air Conditioning & Heating,"5523 Avenue O, Galveston",-94.8272203,29.2838123,POINT (-94.8272203 29.2838123)
El Mina Shrine Center,"1616 23rd Street, Galveston",-94.7896769,29.2943503,POINT (-94.7896769 29.2943503)
Emerald by the Sea Condominium,"500 Seawall Blvd, Galveston",-94.772551,29.3068899,POINT (-94.772551 29.3068899)
Emergencias hospital,"Texas 275, Galveston",-94.7748816,29.3139227,POINT (-94.7748816 29.3139227)
Emilys On The Island,"2410 Church Street, Galveston",-94.7948445,29.3035058,POINT (-94.7948445 29.3035058)
Emmanuel Presbyterian Church,"5602 Avenue P 1/2, Galveston",-94.8270898,29.2815953,POINT (-94.8270898 29.2815953)
Endless Summer,"22515 Bay Point Drive, Galveston",-95.0571529,29.1380966,POINT (-95.0571529 29.1380966)
Endoscopic Foot Specialists,"1617 23rd Street, Galveston",-94.7901826,29.2943324,POINT (-94.7901826 29.2943324)
"Enjet, LLC","3801 Gti Boulevard, Galveston",-94.8154572,29.3170036,POINT (-94.8154572 29.3170036)
Enterprise Rent-A-Car,"5919 Broadway Avenue J, Galveston",-94.8350507,29.2881934,POINT (-94.8350507 29.2881934)
Envy Dance Club,"2413 The Strand Suite A, Galveston",-94.7960169,29.3064553,POINT (-94.7960169 29.3064553)
EPE Technology Services,"5610 Lafitte Avenue, Galveston",-94.8278221,29.2827926,POINT (-94.8278221 29.2827926)
EPG Maintenance Services - Chimney and Fireplace,"1415 Avenue L, Galveston",-94.7815557,29.3006871,POINT (-94.7815557 29.3006871)
Era Helicopters LLC,"13803 Stewart Road, Galveston",-94.9385935,29.2110659,POINT (-94.9385935 29.2110659)
Evco Partners LP,"2727 Broadway Avenue J, Galveston",-94.7975177,29.2983415,POINT (-94.7975177 29.2983415)
Exclesior Condominiums,"402 Postoffice St, Galveston",-94.7720299,29.3102951,POINT (-94.7720299 29.3102951)
Expert House Lifting & Foundation Repair,"3827 Las Palmas Street, Galveston",-94.9477338,29.2045837,POINT (-94.9477338 29.2045837)
Expo Hall,"7 Hope Boulevard, Galveston",-94.8488822,29.2736278,POINT (-94.8488822 29.2736278)
Express Washateria,"3007 Broadway Avenue J, Galveston",-94.8003479,29.2974708,POINT (-94.8003479 29.2974708)
Exxon,"202 Harborside Drive, Galveston",-94.770812,29.3145229,POINT (-94.770812 29.3145229)
EZ Cruise Parking,"2727 Santa Fe Place, Galveston",-94.7982536,29.3055923,POINT (-94.7982536 29.3055923)
Ez parking harborside,"2002 Harborside Drive, Galveston",-94.7917266,29.3088172,POINT (-94.7917266 29.3088172)
EZ SMOKE & NOVELTIES,"3001 Broadway Avenue J, Galveston",-94.8002738,29.2975181,POINT (-94.8002738 29.2975181)
EZPAWN,"2501 Broadway Avenue J, Galveston",-94.7945807,29.2989384,POINT (-94.7945807 29.2989384)
"Falstaff Cruise Parking, Drive In & Cruise Out","3402 Church Street, Galveston",-94.8059458,29.3004531,POINT (-94.8059458 29.3004531)
Family & Cosmetic Dentistry,"1515 23rd Street, Galveston",-94.7905165,29.2948952,POINT (-94.7905165 29.2948952)
Family & Implant Dentistry: Carroll Kim DDS,"1801 Broadway Avenue J, Galveston",-94.7863267,29.3012448,POINT (-94.7863267 29.3012448)
Family Dollar,"2102 45th Street, Galveston",-94.8134739,29.2836563,POINT (-94.8134739 29.2836563)
Family Tides,"4127 King Rail Circle, Galveston",-95.0894585,29.109644,POINT (-95.0894585 29.109644)
Fantastic Sams Cut & Color,"6203 Central City Boulevard, Galveston",-94.8291693,29.2685775,POINT (-94.8291693 29.2685775)
FeatherFest Headquarters,"2602 Santa Fe Place, Galveston",-94.7979669,29.3062478,POINT (-94.7979669 29.3062478)
Ferry Road Food Mart,"502 Ferry Road, Galveston",-94.7693454,29.3190383,POINT (-94.7693454 29.3190383)
First Assembly of God,"4628 Avenue Q, Galveston",-94.8160098,29.2835066,POINT (-94.8160098 29.2835066)
Fishing Pier,"3702 Concho Key, Galveston",-95.0459298,29.1493026,POINT (-95.0459298 29.1493026)
Fleur de Lis Galveston Cottage LLC,"1314 24th Street Rear, Galveston",-94.7918041,29.2967162,POINT (-94.7918041 29.2967162)
Flip Flop Inn,"3312 Avenue P 1/2, Galveston",-94.801064,29.2883611,POINT (-94.801064 29.2883611)
Flying Sea - Galveston Island Home for rent,"3614 Port Trinidad Road, Galveston",-95.0709209,29.1333671,POINT (-95.0709209 29.1333671)
Footy Rooty Galveston,"2417 Market Street, Galveston",-94.7955589,29.304727,POINT (-94.7955589 29.304727)
Formidable Results,"1815 Ursuline Street, Galveston",-94.7852446,29.2967458,POINT (-94.7852446 29.2967458)
Fort Crockett Park,"4550 Seawall Boulevard, Galveston",-94.8113962,29.2755269,POINT (-94.8113962 29.2755269)
Fort San Jacinto Historic Point,"Seawall Boulevard, Galveston",-94.7524258,29.3352008,POINT (-94.7524258 29.3352008)
Four Seasons On The Gulf,"4000 Seawall Boulevard, Galveston",-94.8059365,29.2786186,POINT (-94.8059365 29.2786186)
Frank's Paint & Body Shop,"7817 Bayside Avenue, Galveston",-94.8604812,29.2897529,POINT (-94.8604812 29.2897529)
Freeway Insurance,"3402 Broadway Avenue J, Galveston",-94.8048976,29.2969914,POINT (-94.8048976 29.2969914)
Frenzy Guide Service,"6415 Sea Isle, Galveston",-95.043545,29.1430125,POINT (-95.043545 29.1430125)
Freymiller Galveston Dropyard,"5700 Harborside Drive, Galveston",-94.8340632,29.2980668,POINT (-94.8340632 29.2980668)
From the HeART Gallery,"2111 Postoffice Street, Galveston",-94.7915907,29.3047615,POINT (-94.7915907 29.3047615)
Frost Bank,"2201 Market Street, Galveston",-94.7926689,29.305425,POINT (-94.7926689 29.305425)
Fuel IN-N-OUT,"11128 Termini-San Luis Pass Road, Galveston",-94.8761788,29.2416203,POINT (-94.8761788 29.2416203)
Fujise Kenichi MD,"301 University Boulevard, Galveston",-94.7758738,29.3107498,POINT (-94.7758738 29.3107498)
G.Lee Gallery,"2217 The Strand, Galveston",-94.7941638,29.3070697,POINT (-94.7941638 29.3070697)
Gaff-Toppers Outdoor Club,"3602 8 Mile Road, Galveston",-94.8846124,29.2388794,POINT (-94.8846124 29.2388794)
Gaido inn - lobby and registration,"3802 Avenue T, Galveston",-94.8041162,29.2804756,POINT (-94.8041162 29.2804756)
Gaido's Seaside Inn,"3700 Seawall Boulevard, Galveston",-94.8036651,29.280281,POINT (-94.8036651 29.280281)
Gal-Tex Hotel Corp,"2302 Postoffice St, Galveston",-94.7938677,29.3047077,POINT (-94.7938677 29.3047077)
"Galati Yacht Sales. - Galveston, TX","7819 Broadway Street #100, Galveston",-94.8577089,29.28451,POINT (-94.8577089 29.28451)
Gallery Évasion,"217 23rd Street, Galveston",-94.7944228,29.3065075,POINT (-94.7944228 29.3065075)
Galv Park,"1902 Harborside Drive, Galveston",-94.7901916,29.3095157,POINT (-94.7901916 29.3095157)
Galv Park Holiday & Seawall Lot,"706 Holiday Drive, Galveston",-94.7701528,29.3086699,POINT (-94.7701528 29.3086699)
Galveston,"6702 Seawall Boulevard, Galveston",-94.8329544,29.2651551,POINT (-94.8329544 29.2651551)
Galveston 7th Day Adventice,"1628 Avenue M, Galveston",-94.7840719,29.299426,POINT (-94.7840719 29.299426)
Galveston Alternative School,Galveston,-94.8135296,29.2896816,POINT (-94.8135296 29.2896816)
Galveston Area Ambulance Authority,"2602 Avenue Q, Galveston",-94.7924631,29.2896039,POINT (-94.7924631 29.2896039)
Galveston Artillery Club,"3102 Avenue O, Galveston",-94.7997115,29.2917957,POINT (-94.7997115 29.2917957)
Galveston Artist Residency,"2521 Mechanic Street, Galveston",-94.7971497,29.3053064,POINT (-94.7971497 29.3053064)
Galveston Arts Center,"2127 The Strand, Galveston",-94.7930412,29.307351,POINT (-94.7930412 29.307351)
Galveston Bait & Tackle,"9301 Broadway Street, Galveston",-94.8739094,29.2885942,POINT (-94.8739094 29.2885942)
Galveston Bay Fishing Trips,"9301 Broadway Street, Galveston",-94.8739094,29.2885942,POINT (-94.8739094 29.2885942)
Galveston Bay Properties,"1717 23rd Street, Galveston",-94.7898327,29.2931833,POINT (-94.7898327 29.2931833)
Galveston Beach Condo,"4161 Pointe West Drive, Galveston",-95.0980245,29.1023941,POINT (-95.0980245 29.1023941)
Galveston Beach Condos,"9520 Seawall Boulevard, Galveston",-94.8597841,29.2487872,POINT (-94.8597841 29.2487872)
Galveston Beach Hotel,"8710 Seawall Boulevard, Galveston",-94.8514034,29.2532144,POINT (-94.8514034 29.2532144)
Galveston Beach House Rental- Beachfront Bliss,"23409A Termini-San Luis Pass Road, Galveston",-95.0682921,29.1223602,POINT (-95.0682921 29.1223602)
Galveston Beach House Rentals,"330 61st Street #215, Galveston",-94.8319447,29.2779663,POINT (-94.8319447 29.2779663)
GALVESTON BEACH RENTALS,"1102 39th Street, Galveston",-94.8097885,29.2941877,POINT (-94.8097885 29.2941877)
Galveston Brain Changers,"3607 Broadway Avenue J, Galveston",-94.8072467,29.2958106,POINT (-94.8072467 29.2958106)
Galveston Children's Center,"4415 Avenue M, Galveston",-94.8152713,29.2907546,POINT (-94.8152713 29.2907546)
Galveston Children's Museum,"2618 Broadway Avenue J, Galveston",-94.7962228,29.2993997,POINT (-94.7962228 29.2993997)
Galveston club houses,"3218 road less traveled, Galveston",-94.9039424,29.2469914,POINT (-94.9039424 29.2469914)
Galveston Community Pool At Lasker Park,"2016 43rd Street, Galveston",-94.8116119,29.2850636,POINT (-94.8116119 29.2850636)
Galveston Community Services,"722 21st Street, Galveston",-94.7894685,29.303383,POINT (-94.7894685 29.303383)
Galveston Construction Company,"Port Trinidad Road, Galveston",-95.0673295,29.1308973,POINT (-95.0673295 29.1308973)
Galveston Convertible Rentals,"2121 Market Street # 211, Galveston",-94.7921841,29.3055877,POINT (-94.7921841 29.3055877)
Galveston Country Club,"14228 Stewart Road, Galveston",-94.948826,29.2094704,POINT (-94.948826 29.2094704)
Galveston County Apartment Association,"Building E, 6511 Stewart Road, Suite 5, Galveston",-94.8147491,29.3171027,POINT (-94.8147491 29.3171027)
Galveston County Auditor,"722 21st Street # 4, Galveston",-94.7894685,29.303383,POINT (-94.7894685 29.303383)
Galveston County Daily News,"8522 Teichman Road, Galveston",-94.8659834,29.2848362,POINT (-94.8659834 29.2848362)
Galveston County Health-Clinic,"4700 Broadway Avenue J # C100, Galveston",-94.8199879,29.2938674,POINT (-94.8199879 29.2938674)
Galveston County Historical Museum,"722 Moody Avenue, Galveston",-94.7890341,29.3035162,POINT (-94.7890341 29.3035162)
Galveston County Immunization Services,"4700 Broadway Avenue J, Galveston",-94.8200313,29.2941621,POINT (-94.8200313 29.2941621)
Galveston County Jail,"5700 Ball Street, Galveston",-94.831404,29.2929677,POINT (-94.831404 29.2929677)
Galveston County Justice Administration,"600 59th Street, Galveston",-94.8333933,29.2921892,POINT (-94.8333933 29.2921892)
Galveston Cruise Parking - Lighthouse Cruise Parking,"325 29th Street, Galveston",-94.8013475,29.3039505,POINT (-94.8013475 29.3039505)
Galveston Destinations Resort,"2002 27th Street, Galveston",-94.7932901,29.2898241,POINT (-94.7932901 29.2898241)
Galveston Duck Tours,"2415 Seawall Boulevard, Galveston",-94.790092,29.2884233,POINT (-94.790092 29.2884233)
Galveston East End Guest House,"1714 Avenue H, Galveston",-94.7864465,29.3038085,POINT (-94.7864465 29.3038085)
Galveston Emergency Med Services,"2602 Avenue Q, Galveston",-94.7924631,29.2896039,POINT (-94.7924631 29.2896039)
Galveston Eye-Land Vision Clinic,"6511 Stewart Road #9a, Galveston",-94.8354813,29.2729301,POINT (-94.8354813 29.2729301)
Galveston Fiberglass Pool Repair,"4095 Pirates Alley, Galveston",-94.9369491,29.2049178,POINT (-94.9369491 29.2049178)
Galveston Fishing Company Condo,"2509 Market Street, Galveston",-94.7965504,29.3044425,POINT (-94.7965504 29.3044425)
Galveston Fishing Pier,"9001 Seawall Boulevard, Galveston",-94.8531889,29.2505778,POINT (-94.8531889 29.2505778)
Galveston Flooring Carpet One,"4222 Broadway Avenue J, Galveston",-94.8146685,29.294506,POINT (-94.8146685 29.294506)
Galveston Flower Company,"1513 19th Street, Galveston",-94.7858458,29.2963194,POINT (-94.7858458 29.2963194)
Galveston Garden Club,"3427 Avenue O, Galveston",-94.8034128,29.2901764,POINT (-94.8034128 29.2901764)
Galveston Ghost Hunt,"1522 Seawall Boulevard, Galveston",-94.7813576,29.2957868,POINT (-94.7813576 29.2957868)
Galveston Golf Cart Rentals,"23500 Termini-San Luis Pass Road, Galveston",-95.0702378,29.1224266,POINT (-95.0702378 29.1224266)
Galveston Helicopters,"2115 Terminal Drive, Galveston",-94.8553451,29.2681865,POINT (-94.8553451 29.2681865)
Galveston Historic Seaport - Home of the 1877 Tall Ship ELISSA,"Pier 22 Suite, 8, Galveston",-94.7933003,29.3090547,POINT (-94.7933003 29.3090547)
Galveston Historical Fndnt,"1402 Broadway Avenue J, Galveston",-94.782186,29.3031006,POINT (-94.782186 29.3031006)
Galveston Holistic Wellness,"3622 85th Street Suite 101, Galveston",-94.8493775,29.2553335,POINT (-94.8493775 29.2553335)
Galveston Home Buyers,"1810 19th Street #1, Galveston",-94.784756,29.293992,POINT (-94.784756 29.293992)
Galveston Hotel & Lodging Association,"2024 Seawall Boulevard, Galveston",-94.7860722,29.2927253,POINT (-94.7860722 29.2927253)
Galveston Inn & Suites Hotel,"7220 Broadway Street, Galveston",-94.8522717,29.2890611,POINT (-94.8522717 29.2890611)
Galveston ISD Softball Field,"3103 83rd Street, Galveston",-94.8500776,29.2589155,POINT (-94.8500776 29.2589155)
Galveston Island Brewing,"8423 Stewart Road, Galveston",-94.8491631,29.2556348,POINT (-94.8491631 29.2556348)
Galveston Island Brewing Parking Lot,"3515 85th Street, Galveston",-94.8500964,29.2557574,POINT (-94.8500964 29.2557574)
"Galveston Island Cigar Lounge, LLC","1813 61st Street, Galveston",-94.8340441,29.2804928,POINT (-94.8340441 29.2804928)
Galveston Island Convention Center at The San Luis Resort,"5600 Seawall Boulevard, Galveston",-94.8221817,29.2696037,POINT (-94.8221817 29.2696037)
Galveston Island Historic Pleasure Pier,"2501 Seawall Boulevard, Galveston",-94.7902046,29.2875292,POINT (-94.7902046 29.2875292)
Galveston Island Home Inspections,"4168 Pirates Drive, Galveston",-94.9362658,29.2046086,POINT (-94.9362658 29.2046086)
Galveston Island Horse and Pony Rides,"1929 Boddeker Road, Galveston",-94.7344875,29.3336225,POINT (-94.7344875 29.3336225)
Galveston Island KOA Holiday,"23700 Termini-San Luis Pass Road, Galveston",-95.0734496,29.1220283,POINT (-95.0734496 29.1220283)
Galveston Island State Park,"14901 Fm 3005 Galveston, TX 77554",-94.9545979499817,29.1940825995389,POINT (-94.9545979499817 29.1940825995389)
Galveston Island Tours LLC,"502 20th Street, Galveston",-94.7896601,29.3052893,POINT (-94.7896601 29.3052893)
Galveston Luxury Vacation Rentals/ Call of The Sea,"24519 Termini-San Luis Pass Road, Galveston",-95.078434,29.115363,POINT (-95.078434 29.115363)
Galveston Luxury Vacation Rentals/ Heaven on Bay,"26122 Bay Breeze Drive, Galveston",-95.1013903,29.1091723,POINT (-95.1013903 29.1091723)
Galveston Luxury Vacation Rentals/ SeaGlass,"7 Grand Beach Blvd, Galveston",-94.7623331,29.3098134,POINT (-94.7623331 29.3098134)
Galveston Maids,"12431 East Ventura Drive, Galveston",-94.9084876,29.2197353,POINT (-94.9084876 29.2197353)
Galveston Marina & Boat Storage,"14302 Stewart Road, Galveston",-94.9492543,29.20742,POINT (-94.9492543 29.20742)
Galveston Massage,"2115 61st Street #107, Galveston",-94.8325366,29.2772877,POINT (-94.8325366 29.2772877)
Galveston Naval Museum,"100 Seawolf Park Boulevard, Galveston",-94.7794048,29.3344846,POINT (-94.7794048 29.3344846)
Galveston Park N Cruise,"2514 New Strand Street, Galveston",-94.797454,29.3070454,POINT (-94.797454 29.3070454)
Galveston Parks & Recreation,"2222 28th Street, Galveston",-94.7935725,29.2872666,POINT (-94.7935725 29.2872666)
Galveston Party Boats,"1700 Harborside Drive, Galveston",-94.789556,29.3107189,POINT (-94.789556 29.3107189)
Galveston Physical Medicine,"2724 61st Street, Galveston",-94.8289143,29.2727925,POINT (-94.8289143 29.2727925)
Galveston Police Department,"601 54th Street, Galveston",-94.8296365,29.2936683,POINT (-94.8296365 29.2936683)
Galveston Railroad Msm the Center,"2602 Santa Fe Place, Galveston",-94.7985082,29.3061047,POINT (-94.7985082 29.3061047)
Galveston Railroad Museum,"2602 Santa Fe Place, Galveston",-94.7985082,29.3061047,POINT (-94.7985082 29.3061047)
Galveston Real Estate Natalie Clarke,"3433 Cove View Boulevard, Galveston",-94.8696735,29.2458381,POINT (-94.8696735 29.2458381)
Galveston Rooming House,"515 20th Street, Galveston",-94.7901405,29.3048912,POINT (-94.7901405 29.3048912)
Galveston RV Rental,"2008 Avenue K, Galveston",-94.7886123,29.3001387,POINT (-94.7886123 29.3001387)
Galveston RV Resort and Marina,"6310 Heards Lane, Galveston",-94.8350109,29.2787925,POINT (-94.8350109 29.2787925)
Galveston Seawall House,"1802 Seawall Boulevard, Galveston",-94.7837547,29.2937879,POINT (-94.7837547 29.2937879)
Galveston Seventh-day Adventist Church,"1628 Avenue M 1/2, Galveston",-94.7837419,29.2985268,POINT (-94.7837419 29.2985268)
Galveston Slingshot Rentals,"2115 61st Street #101, Galveston",-94.8325925,29.2777048,POINT (-94.8325925 29.2777048)
Galveston Texas Roofing Contractor,"2708 Winnie Rear Street, Galveston",-94.7979577,29.3016813,POINT (-94.7979577 29.3016813)
"Galveston top realtor, Lynn Beardslee-JPAR Sears Group","6025 Heards Lane, Galveston",-94.8322185,29.2786722,POINT (-94.8322185 29.2786722)
Galveston Transportation - Galveston Shuttle bus Service,"3002 69th Street, Galveston",-94.8355911,29.2692769,POINT (-94.8355911 29.2692769)
Galveston Trolley Station,"413-499 20th Street, Galveston",-94.7901994,29.3059102,POINT (-94.7901994 29.3059102)
Galveston Unscripted Podcast | Audio Tour,"100 20th Street, Galveston",-94.7908921,29.3087443,POINT (-94.7908921 29.3087443)
Galveston Urban Ministries,"3727 Avenue H, Galveston",-94.8096442,29.2972952,POINT (-94.8096442 29.2972952)
Galveston VA Clinic,"3828 Ursuline Street, Galveston",-94.8087826,29.2913593,POINT (-94.8087826 29.2913593)
galveston vacation rental by owner,"1401 East Beach Drive, Galveston",-94.751745,29.3182857,POINT (-94.751745 29.3182857)
Galveston VIP Cruise Parking,"111 Rosenberg Street, Galveston",-94.7972231,29.3071013,POINT (-94.7972231 29.3071013)
Galveston Visitor Center,"Chamber of Commerce, 2228 Mechanic Street, First Floor Lobby Inside the, Galveston",-94.7938972,29.3064903,POINT (-94.7938972 29.3064903)
Galveston wharfs,"303 31st Street, Galveston",-94.8032672,29.3044129,POINT (-94.8032672 29.3044129)
Galveston Wholesale Building Materials,"4807 Pean Street, Galveston",-94.9066035,29.2230476,POINT (-94.9066035 29.2230476)
Galveston Yacht Marina,"715 North Holiday Drive, Galveston",-94.7745242,29.3182961,POINT (-94.7745242 29.3182961)
GalvestonCruises.com,"523 24th Street, Galveston",-94.7945907,29.3035899,POINT (-94.7945907 29.3035899)
Galvestonian Heliport,Galveston,-94.7336111,29.3336111,POINT (-94.7336111 29.3336111)
Galvez Home Solutions,"7019 Lasker Drive, Galveston",-94.8359874,29.2631444,POINT (-94.8359874 29.2631444)
Garage 4-Parking for SHP,"12th Street &, Mechanic Street, Galveston",-94.781527,29.309578,POINT (-94.781527 29.309578)
"Gary S. Bucholz, DPM","1617 23rd Street, Galveston",-94.7901826,29.2943324,POINT (-94.7901826 29.2943324)
GC Energy Services,"2920 Todd Road, Galveston",-94.797432,29.3166955,POINT (-94.797432 29.3166955)
George Sealy Mansion,"2419 Sealy Avenue, Galveston",-94.7940064,29.299999,POINT (-94.7940064 29.299999)
George's Air Conditioning,"1515 31st Street, Galveston",-94.7998544,29.2925067,POINT (-94.7998544 29.2925067)
Getaway to Galveston,"5220 Seawall Boulevard APT 434, Galveston",-94.8177232,29.2728158,POINT (-94.8177232 29.2728158)
Geters Carla A,"4115 Avenue O, Galveston",-94.8116507,29.2880698,POINT (-94.8116507 29.2880698)
GiGi's Place B&B,"1628 46th Street, Galveston",-94.8161297,29.2872596,POINT (-94.8161297 29.2872596)
Glaveston Cruise Terminal,"3300 Harborside Drive, Galveston",-94.8061477,29.3041619,POINT (-94.8061477 29.3041619)
Glenn Family Dental Clinic,"2601 Broadway Avenue J, Galveston",-94.7956038,29.2988271,POINT (-94.7956038 29.2988271)
Glow Galveston Custom Airbrush Tanning Boutique,"3512 Avenue P 1/2, Galveston",-94.8033706,29.2877048,POINT (-94.8033706 29.2877048)
God's Kingdom And Restoration Ministries (GKARM),"4628 Avenue Q, Galveston",-94.8159648,29.2835128,POINT (-94.8159648 29.2835128)
Goldblum Randall M MD,"300 University Boulevard, Galveston",-94.773908,29.311179,POINT (-94.773908 29.311179)
Gone Gulfin',"5220 Seawall Boulevard APT 1435, Galveston",-94.8177232,29.2728158,POINT (-94.8177232 29.2728158)
Goodwill Houston Select Stores,"4525 Avenue U, Galveston",-94.8121418,29.2762266,POINT (-94.8121418 29.2762266)
Gowan Inc,"900 Harborside Drive, Galveston",-94.8630868,29.2857474,POINT (-94.8630868 29.2857474)
Grace Fishing Charters,Galveston,-94.7765463,29.3193964,POINT (-94.7765463 29.3193964)
Grand Galvez,"2024 Seawall Boulevard, Galveston",-94.7860458,29.2927022,POINT (-94.7860458 29.2927022)
Great Escapes by Jason,"215 Market Street F309, Galveston",-94.7704125,29.3113519,POINT (-94.7704125 29.3113519)
Grem's Guide Service,"9301 Broadway Street, Galveston",-94.8738674,29.2886836,POINT (-94.8738674 29.2886836)
Grete Oppe School,"2915 81st Street, Galveston",-94.8502083,29.2634489,POINT (-94.8502083 29.2634489)
Gulf Coast Center,"3828 Ursuline Street, Galveston",-94.808869,29.2913957,POINT (-94.808869 29.2913957)
Gulf Coast Conference Inc,"Moody Gardens Tram Route, Galveston",-94.8541919,29.2735011,POINT (-94.8541919 29.2735011)
Gulf Coast Electric,"38 Back Bay Circle, Galveston",-94.8434335,29.2759019,POINT (-94.8434335 29.2759019)
Gulf Coast King,"9301 Broadway Street, Galveston",-94.873923,29.288874,POINT (-94.873923 29.288874)
Gulf Coast Marine Construction,"1412 42nd Street, Galveston",-94.8122229,29.2904743,POINT (-94.8122229 29.2904743)
Gulf Copper Dry Dock & Rig Repair,"2920 Todd Road, Galveston",-94.7974887,29.3167494,POINT (-94.7974887 29.3167494)
Gulf Gas Station,"4827 Broadway Avenue J, Galveston",-94.8214825,29.2920039,POINT (-94.8214825 29.2920039)
Gulf Leisure Resorts Inc,"12200 Termini-San Luis Pass Road, Galveston",-94.9060334,29.2231032,POINT (-94.9060334 29.2231032)
Gulf Meditation,Galveston,-94.7935665,29.2851532,POINT (-94.7935665 29.2851532)
Gulf Siesta,"3818 Avenue S, Galveston",-94.8055315,29.2823818,POINT (-94.8055315 29.2823818)
"Gulshan Sharma, MD, MPH","301 University Boulevard, Galveston",-94.7758738,29.3107498,POINT (-94.7758738 29.3107498)
Gursaran Morrical,"901 Harborside Drive, Galveston",-94.7791157,29.3119745,POINT (-94.7791157 29.3119745)
Gus Allen Sr. Park,"2800 Church Street, Galveston",-94.7986969,29.3024019,POINT (-94.7986969 29.3024019)
GypsyGirl Nails,"6039 Sea Isle, Galveston",-95.043554,29.1430238,POINT (-95.043554 29.1430238)
H&R Block,"4605 Fort Crockett Boulevard, Galveston",-94.8134869,29.2757846,POINT (-94.8134869 29.2757846)
Hair on Q,"3124 Avenue Q, Galveston",-94.7988474,29.2879998,POINT (-94.7988474 29.2879998)
Half Moon Beach & Stavanger Beach,"24087 Termini-San Luis Pass Road, Galveston",-95.0747493,29.1169514,POINT (-95.0747493 29.1169514)
Hampton Inn & Suites Galveston,"6431 Central City Boulevard, Galveston",-94.8310769,29.2661987,POINT (-94.8310769 29.2661987)
Happy In Margaritaville,"11203 Bernice Drive, Galveston",-94.8815434,29.2361021,POINT (-94.8815434 29.2361021)
Harbor East Condominiums,"500 Ferry Rd, Galveston",-94.7700423,29.3203292,POINT (-94.7700423 29.3203292)
Harbor House Hotel & Marina at Pier 21,"28 Pier 21, Galveston",-94.7925577,29.3095886,POINT (-94.7925577 29.3095886)
Harborside Condominiums Owners,"104 21st St, Galveston",-94.7921761,29.3084218,POINT (-94.7921761 29.3084218)
Harmon Pottery,"1218 Avenue M 1/2, Galveston",-94.7789157,29.2998515,POINT (-94.7789157 29.2998515)
Harpoon Haven,"4015 War Chest Court, Galveston",-94.9409964,29.2036739,POINT (-94.9409964 29.2036739)
"Hattie's Place, Too","37th Street Near, R, Galveston",-94.8037264,29.2825557,POINT (-94.8037264 29.2825557)
Healing and Prayer Center Galveston,"4106 Reeves Drive, Galveston",-95.0429058,29.143431,POINT (-95.0429058 29.143431)
Health Initiatives Learning,"5301 Broadway Avenue J, Galveston",-94.8264955,29.2908013,POINT (-94.8264955 29.2908013)
Heavenly Touch Beauty and Wellness Spa,"2002 45th Street, Galveston",-94.8139963,29.2845508,POINT (-94.8139963 29.2845508)
Heffernan Insurance Inc,"1703 23rd Street, Galveston",-94.7899099,29.2935735,POINT (-94.7899099 29.2935735)
Heidi & Jojo Hair Braiding,"6195 Central City Boulevard, Galveston",-94.8290626,29.2685994,POINT (-94.8290626 29.2685994)
Hensley Electric,"4010 3rd Street, Galveston",-95.0696428,29.127625,POINT (-95.0696428 29.127625)
Heritage,"Termini-San Luis Pass Road, Galveston",-94.9362728,29.2081318,POINT (-94.9362728 29.2081318)
"Heritage Coastal Vacation Rentals, LLC","13655 Farm to Market Road 3005 suite b, Galveston",-94.936103,29.2079217,POINT (-94.936103 29.2079217)
HF Quality Taxi & Airport Shuttle Service,"2906 Avenue M 1/2, Galveston",-94.7981325,29.2947784,POINT (-94.7981325 29.2947784)
HICV GSR Signature Building,"19418 Termini-San Luis Pass Road, Galveston",-95.0114494,29.1587615,POINT (-95.0114494 29.1587615)
HIE hotel &Suites,"8638 Seawall Boulevard, Galveston",-94.7977277,29.3013582,POINT (-94.7977277 29.3013582)
High Tide Hideaway,"813 Church Street, Galveston",-94.7765199,29.307787,POINT (-94.7765199 29.307787)
Hilton Galveston Island Resort,"5400 Seawall Boulevard, Galveston",-94.821378,29.2707145,POINT (-94.821378 29.2707145)
Historic Downtown Strand Seaport Partnership,"502 20th Street, Galveston",-94.7971552,29.3071012,POINT (-94.7971552 29.3071012)
Historic Harbor Tours and Dolphin Watch,"Pier 22 Suite #8, Galveston",-94.7931648,29.3090516,POINT (-94.7931648 29.3090516)
Historic Home Rentals,"1409 Market Street, Galveston",-94.7838868,29.3077836,POINT (-94.7838868 29.3077836)
Holiday Inn Club Vacations Galveston Beach Resort,"11743 Termini-San Luis Pass Road #6293, Galveston",-94.8961501,29.2283817,POINT (-94.8961501 29.2283817)
Holiday Inn Club Vacations Galveston Seaside Resort,"19320 Termini-San Luis Pass Road, Galveston",-95.0134236,29.1625961,POINT (-95.0134236 29.1625961)
"Holiday Inn Express & Suites Galveston Beach, an IHG Hotel","3228 Seawall Boulevard, Galveston",-94.79856,29.28343,POINT (-94.79856 29.28343)
"Holiday Inn Express & Suites Galveston West-Seawall, an IHG Hotel","8628 Seawall Boulevard, Galveston",-94.8508256,29.2532731,POINT (-94.8508256 29.2532731)
"Holiday Inn Resort Galveston-on the Beach, an IHG Hotel","5002 Seawall Boulevard, Galveston",-94.817101,29.2727918,POINT (-94.817101 29.2727918)
Holy Family Catholic School,"2601 Ursuline Street, Galveston",-94.793756,29.294033,POINT (-94.793756 29.294033)
Holy Rosary Catholic Church,"1420 31st Street, Galveston",-94.799496,29.2935133,POINT (-94.799496 29.2935133)
Home2 Suites by Hilton Galveston,"4302 Seawall Boulevard, Galveston",-94.8089973,29.2770137,POINT (-94.8089973 29.2770137)
HomeTown Bank of Galveston- Main Bank,"1801 45th Street, Galveston",-94.8149264,29.2857943,POINT (-94.8149264 29.2857943)
Honorable Jan Yarbrough,"600 59th Street, Galveston",-94.8335879,29.2927427,POINT (-94.8335879 29.2927427)
Hooked on Acupuncture,"2505 Market Street, Galveston",-94.7964012,29.3045575,POINT (-94.7964012 29.3045575)
Hospital,"521 8th Street, Galveston",-94.7770173,29.3107328,POINT (-94.7770173 29.3107328)
Hospital Parking Garage 8,Galveston,-94.7756011,29.3116784,POINT (-94.7756011 29.3116784)
Hospitality Staffing Solutions,"305 21st Street #176, Galveston",-94.7919231,29.3065731,POINT (-94.7919231 29.3065731)
Hotel Galvez Parking Garage,"1921 21st Street, Galveston",-94.7869676,29.2921951,POINT (-94.7869676 29.2921951)
Hotel Lucine,"1002 Seawall Boulevard, Galveston",-94.7762025,29.3004827,POINT (-94.7762025 29.3004827)
Hotel San Luis resort,Galveston,-94.7977277,29.3013582,POINT (-94.7977277 29.3013582)
Hotel Tawanda,"1712 24th Street Rear, Galveston",-94.7907107,29.2932893,POINT (-94.7907107 29.2932893)
Howard Johnson by Wyndham Galveston,"8216 Harborside Drive, Galveston",-94.8641575,29.2879472,POINT (-94.8641575 29.2879472)
Hugh Pest Control Galveston,"Spanish Grant Road, Galveston",-94.9104386,29.219506,POINT (-94.9104386 29.219506)
Hurricane Electric,"6702 Oleander Avenue, Galveston",-94.8368132,29.2719583,POINT (-94.8368132 29.2719583)
Hybasia,"3715 Avenue M 1/2, Galveston",-94.8074263,29.2919475,POINT (-94.8074263 29.2919475)
Ibis Mechanical,"3651 Foremast Drive, Galveston",-94.929496,29.2163115,POINT (-94.929496 29.2163115)
Ideal Lumber Co,"6520 Stewart Road, Galveston",-94.8357741,29.2740304,POINT (-94.8357741 29.2740304)
Ike's Revenge,"11226 Reagor Way, Galveston",-94.883489,29.2369371,POINT (-94.883489 29.2369371)
ILA,"1907 45th Street, Galveston",-94.814621,29.2852481,POINT (-94.814621 29.2852481)
Immaculate,"4202 Avenue S, Galveston",-94.8094983,29.2812922,POINT (-94.8094983 29.2812922)
In City Beach House,"5720 Maco Street, Galveston",-94.8243222,29.270223,POINT (-94.8243222 29.270223)
Indian Summer,"18410 East De Vaca Lane, Galveston",-94.9954479,29.168618,POINT (-94.9954479 29.168618)
Indoor Cruise Parking,"202 37th Street, Galveston",-94.8101226,29.3027331,POINT (-94.8101226 29.3027331)
Infinite Mobile PC,"4420 Avenue K, Galveston",-94.8165469,29.2927782,POINT (-94.8165469 29.2927782)
Inn at the Waterpark,"2525 Jones Drive, Galveston",-94.8499165,29.2655757,POINT (-94.8499165 29.2655757)
Inn Seaclusion,"1715 19th Street #9, Galveston",-94.7853208,29.294499,POINT (-94.7853208 29.294499)
Insurance Junction Inc.,"3320 Broadway Avenue J, Galveston",-94.8043398,29.2972447,POINT (-94.8043398 29.2972447)
Inverness By the Sea,"7600 Seawall Boulevard, Galveston",-94.8405833,29.2593028,POINT (-94.8405833 29.2593028)
Ira Levin Insurance,"1715 23rd Street, Galveston",-94.7898367,29.2932448,POINT (-94.7898367 29.2932448)
Isaac's film crew,"2907 Avenue L, Galveston",-94.7986094,29.2961117,POINT (-94.7986094 29.2961117)
Isla Bonita,"4102 Broadway Avenue J, Galveston",-94.8129267,29.2948926,POINT (-94.8129267 29.2948926)
Island Bay Resort Apartment Homes,"7400 Jones Drive, Galveston",-94.8446427,29.2706019,POINT (-94.8446427 29.2706019)
Island Body Works @ Atmosphere,"1221 23rd Street, Galveston",-94.7913694,29.2975132,POINT (-94.7913694 29.2975132)
Island Breeze Shuttle,"5201 Avenue S, Galveston",-94.8208989,29.2779653,POINT (-94.8208989 29.2779653)
Island Drip Spa,"2002 Avenue B Suite 102, Galveston",-94.7913787,29.308193,POINT (-94.7913787 29.308193)
"Island Famous, Inc.","2412 33rd Street, Galveston",-94.7989542,29.2844982,POINT (-94.7989542 29.2844982)
Island Health Center,"4623 Fort Crockett Boulevard, Galveston",-94.813379,29.276188,POINT (-94.813379 29.276188)
"Island Inn By OYO Galveston Beach, TX","6311 Central City Boulevard, Galveston",-94.8302522,29.2685873,POINT (-94.8302522 29.2685873)
Island Innovations Inc,"3802 Cove View Boulevard, Galveston",-94.8678247,29.2446394,POINT (-94.8678247 29.2446394)
Island Jet Center,"2115 Terminal Drive, Galveston",-94.8553451,29.2681865,POINT (-94.8553451 29.2681865)
Island Machine Works,"4217 Avenue M, Galveston",-94.813301,29.2913497,POINT (-94.813301 29.2913497)
Island Marine Pile Drivers,"7805 Bayside Avenue, Galveston",-94.8598528,29.2897032,POINT (-94.8598528 29.2897032)
Island Pediatrics,"301 University Boulevard, Galveston",-94.7758738,29.3107498,POINT (-94.7758738 29.3107498)
Island Pier Club,"1702 Avenue O, Galveston",-94.7832229,29.2958131,POINT (-94.7832229 29.2958131)
Island spot Hookah Lounge & Grill (Halal),"1017 61st Street, Galveston",-94.8377,29.2872982,POINT (-94.8377 29.2872982)
Island Supplements,"1905 45th Street, Galveston",-94.8146298,29.2853205,POINT (-94.8146298 29.2853205)
Island vibes nutrition,"613 University Boulevard, Galveston",-94.7739672,29.308337,POINT (-94.7739672 29.308337)
Islander East Resort,"415 E Beach Dr, Galveston",-94.7565783,29.314553,POINT (-94.7565783 29.314553)
J & J Telecommunications Inc,"7909 Harborside Drive, Galveston",-94.8617675,29.2909061,POINT (-94.8617675 29.2909061)
J Bangle Galleries,"1124 25th Street, Galveston",-94.7935114,29.2978274,POINT (-94.7935114 29.2978274)
J. W. Kelso Co Inc,"7225 Harborside Drive, Galveston",-94.8554356,29.2936885,POINT (-94.8554356 29.2936885)
Jamaica Beach RV Park,"17200 Termini-San Luis Pass Road, Galveston",-94.9817956,29.1789996,POINT (-94.9817956 29.1789996)
Jana Kyu K MD,"6710 Stewart Road # 100, Galveston",-94.8383319,29.2735109,POINT (-94.8383319 29.2735109)
JC Dodd Lofts,"2427 Market Street, Galveston",-94.7958531,29.3046948,POINT (-94.7958531 29.3046948)
JC League House,"1702 Broadway Avenue J, Galveston",-94.7856244,29.3022075,POINT (-94.7856244 29.3022075)
Jennie Sealy Hospital,"712 Texas Avenue, Galveston",-94.7760586,29.3125626,POINT (-94.7760586 29.3125626)
Jennings Richard MD,"301 University Boulevard, Galveston",-94.7758738,29.3107498,POINT (-94.7758738 29.3107498)
Jessica Leigh Multimedia,"1820 56th Street, Galveston",-94.8270258,29.282657,POINT (-94.8270258 29.282657)
Jessicas Mobile Notary Services,"4222 Broadway Avenue J, Galveston",-94.8146891,29.2944812,POINT (-94.8146891 29.2944812)
John Ford Jewelers,"2114 61st Street, Galveston",-94.8318665,29.277496,POINT (-94.8318665 29.277496)
John Sealy Hospital,"301 8th Street, Galveston",-94.7772529,29.3107035,POINT (-94.7772529 29.3107035)
Jungle Surf Rentals,"1020 Seawall Boulevard, Galveston",-94.7765677,29.3001141,POINT (-94.7765677 29.3001141)
K6 Island Sports,"21430 Termini-San Luis Pass Road, Galveston",-95.039223,29.1424412,POINT (-95.039223 29.1424412)
Kathy's Kottage,"4114 King Rail Circle, Galveston",-95.0903277,29.109578,POINT (-95.0903277 29.109578)
Kemistry,"4927 Broadway Avenue J, Galveston",-94.8226876,29.2917306,POINT (-94.8226876 29.2917306)
Kempner Park Monument,"3510-0040-1000, 001, Galveston",-94.795386,29.2937221,POINT (-94.795386 29.2937221)
Ken's Towing & Recovery,"5100 Postoffice Street, Galveston",-94.8261015,29.2958672,POINT (-94.8261015 29.2958672)
Kermit Courville Stadium,"1429 27th Street, Galveston",-94.7960952,29.295101,POINT (-94.7960952 29.295101)
"Kevin H. McKinney, MD, FACE","301 University Boulevard, Galveston",-94.7758738,29.3107498,POINT (-94.7758738 29.3107498)
Kiddie Kampus,"4627 Avenue Q 1/2, Galveston",-94.8156001,29.2822247,POINT (-94.8156001 29.2822247)
Kindness Project Murals,"22nd &, Avenue East, Galveston",-94.8234384,29.2967318,POINT (-94.8234384 29.2967318)
Kiwi Services,Galveston,-94.9039424,29.2469914,POINT (-94.9039424 29.2469914)
Knapp Flower Shop,"1122 45th Street, Galveston",-94.8164597,29.2919664,POINT (-94.8164597 29.2919664)
Knights Inn Galveston,"3008 Seawall Boulevard, Galveston",-94.796085,29.2848325,POINT (-94.796085 29.2848325)
Kokomo Beach House,"23149 Gulf Drive, Galveston",-95.0606784,29.1273768,POINT (-95.0606784 29.1273768)
"Kristin White, LMT","1015 26th Street, Galveston",-94.7955062,29.2985115,POINT (-94.7955062 29.2985115)
Kritikos Grill,,-94.8156513319126,29.2734950161142,POINT (-94.8156513319126 29.2734950161142)
Kwik Kar @ Broadway,"3115 Broadway Avenue J, Galveston",-94.8018586,29.2970794,POINT (-94.8018586 29.2970794)
L & T Services,"2823 Mechanic Street, Galveston",-94.799992,29.302573,POINT (-94.799992 29.302573)
La King's Confectionery,"2323 The Strand, Galveston",-94.79511,29.3067,POINT (-94.79511 29.3067)
La Mansión MariMar,"24459 Termini-San Luis Pass Road, Galveston",-95.0778648,29.115747,POINT (-95.0778648 29.115747)
La Moda Salon & Day Spa,"523 24th Street #201, Galveston",-94.7945357,29.3036319,POINT (-94.7945357 29.3036319)
LA Morgan Elementary School,"1410 37th Street, Galveston",-94.8059162,29.2920332,POINT (-94.8059162 29.2920332)
La Quinta Inn & Suites by Wyndham Galveston,"758C+W8, 2901 63rd Street, Galveston",-94.8291875,29.2673125,POINT (-94.8291875 29.2673125)
La Quinta Inn & Suites by Wyndham Galveston Island North,"1002 63rd Rear Street, Galveston",-94.839937,29.287721,POINT (-94.839937 29.287721)
Laffite's Cove Nature Society,"3503 Eckert Drive, Galveston",-94.9344437,29.2176129,POINT (-94.9344437 29.2176129)
Laguna San Luis,"25239 Sausalito Drive, Galveston",-95.0881973,29.1132265,POINT (-95.0881973 29.1132265)
Landon's Lookout,"1405 50th Street, Galveston",-94.8221082,29.2880217,POINT (-94.8221082 29.2880217)
Larry Ryan Heating & Air Conditioning,"6705 Golfcrest Drive, Galveston",-94.8355853,29.2698347,POINT (-94.8355853 29.2698347)
Las Villas Apartments,Galveston,-94.7784345,29.3033559,POINT (-94.7784345 29.3033559)
Lasker Inn Bed & Breakfast and Event Venue,"1019 16th Street, Galveston",-94.7839932,29.3013671,POINT (-94.7839932 29.3013671)
Latitude 29 Group,"1227 Avenue L, Galveston",-94.7795639,29.301057,POINT (-94.7795639 29.301057)
Le Makeup Muse,"1610 Postoffice St, Galveston",-94.7860151,29.3067566,POINT (-94.7860151 29.3067566)
Lee Hage Jamail Student Center,Galveston,-94.7795687,29.311418,POINT (-94.7795687 29.311418)
"LEWIS DESIGN GROUP, PLLC","2928 Bernardo De Galvez Avenue, Galveston",-94.7971955,29.2902709,POINT (-94.7971955 29.2902709)
Lewis Tsai,"400 Harborside Drive, Galveston",-94.7748219,29.3148616,POINT (-94.7748219 29.3148616)
Libbie's Place Senior Day Program,"5402 Avenue U, Galveston",-94.8226143,29.2742405,POINT (-94.8226143 29.2742405)
Libby Moody Thompson Basic Science Building,"1000 Mechanic Street, Galveston",-94.7796106,29.3103979,POINT (-94.7796106 29.3103979)
Life by the sea,"2811 1/2 Avenue Q 1/2 R, Galveston",-94.7945755,29.2877027,POINT (-94.7945755 29.2877027)
Life's A Beach,"19130 Kahala Drive, Galveston",-95.0073586,29.1609153,POINT (-95.0073586 29.1609153)
Lighthouse parking Lot 3,"2801 Market Street, Galveston",-94.7997881,29.3036021,POINT (-94.7997881 29.3036021)
Lil House by the Sea,"2114 27th Street, Galveston",-94.7930292,29.2887653,POINT (-94.7930292 29.2887653)
Little Winnie,"2517 Winnie Rear Street, Galveston",-94.7960207,29.3018379,POINT (-94.7960207 29.3018379)
Live Oak Baptist Church,"1020 32nd Street, Galveston",-94.8017996,29.2967427,POINT (-94.8017996 29.2967427)
Lone Star Geotech Services,"1801 31st Street, Galveston",-94.7989835,29.2904036,POINT (-94.7989835 29.2904036)
Lone Star Pianos,"2620 Avenue M, Galveston",-94.7953726,29.2964643,POINT (-94.7953726 29.2964643)
"Longworth Law Firm, P.C.","4106 Kiva Road, Galveston",-95.004024,29.1675126,POINT (-95.004024 29.1675126)
loonol MASSAGE,"4631 Fort Crockett Boulevard, Galveston",-94.8131831,29.2762274,POINT (-94.8131831 29.2762274)
Lot А - Port Of Galveston Cruise Parking,"150 33rd Street, Galveston",-94.8040417,29.3051314,POINT (-94.8040417 29.3051314)
Louis's Hair Studio,"4421 Avenue P 1/2, Galveston",-94.8140231,29.2846042,POINT (-94.8140231 29.2846042)
LuLu's The Salon & Spa,"5205 Avenue U, Galveston",-94.8198732,29.2742473,POINT (-94.8198732 29.2742473)
Luna Lea Day Spa,"1802 Broadway Avenue J Suite 226, Galveston",-94.7866785,29.3019038,POINT (-94.7866785 29.3019038)
Lupita,"2314 45th St Galveston, TX 77550",-94.8130149288355,29.2816605268114,POINT (-94.8130149288355 29.2816605268114)
M-I Drilling Fluids,"4105 Port Industrial Road, Galveston",-94.829131,29.299673,POINT (-94.829131 29.299673)
M-I Swaco,"1300 Coastwide Road, Galveston",-94.7870484,29.324723,POINT (-94.7870484 29.324723)
M. W. Shaw Building,"2427 Market Street, Galveston",-94.7958531,29.3046948,POINT (-94.7958531 29.3046948)
Macedonia Missionary Baptist Church,"Avenue M 1/2, Galveston",-94.798494,29.2947452,POINT (-94.798494 29.2947452)
Maebemy Gallery,"2828 61st Street UNIT 1303, Galveston",-94.8270884,29.2690695,POINT (-94.8270884 29.2690695)
Magnolia Hotel,"4211 Mason Drive, Galveston",-95.0434652,29.1411059,POINT (-95.0434652 29.1411059)
Magruder Family & Cosmetic Dentistry - Orthodontics Galveston,"3314 Avenue O, Galveston",-94.8020445,29.290952,POINT (-94.8020445 29.290952)
Maid Works,"1104 35th Street, Galveston",-94.8051635,29.295295,POINT (-94.8051635 29.295295)
Mainland Floral,"2710 Broadway Avenue J, Galveston",-94.7972328,29.2991095,POINT (-94.7972328 29.2991095)
Mallory Produce Building,"2112 The Strand, Galveston",-94.7926576,29.3078728,POINT (-94.7926576 29.3078728)
Malloy Funerals & Cremations,"3028 Broadway Avenue J, Galveston",-94.801046,29.2981623,POINT (-94.801046 29.2981623)
Mamady's Primitive Art From,"2211 The Strand, Galveston",-94.7937577,29.307213,POINT (-94.7937577 29.307213)
Manuel's Paint & Body Shop,"3828 Avenue S, Galveston",-94.8057269,29.2823875,POINT (-94.8057269 29.2823875)
Maravilla Owners Association,"9520 Seawall Boulevard, Galveston",-94.8597841,29.2487872,POINT (-94.8597841 29.2487872)
Maravilla Seawall Condo by AB Sea,"8610 Seawall Blvd, Galveston",-94.8503361,29.2532946,POINT (-94.8503361 29.2532946)
Mardi Gras,"6102 Seawall Boulevard #158, Galveston",-94.8275823,29.2668472,POINT (-94.8275823 29.2668472)
Mare Blu Unit,"3506 Cove View Boulevard, Galveston",-94.8674806,29.246844,POINT (-94.8674806 29.246844)
"Maria E. Rivera, CNM","301 University Boulevard, Galveston",-94.7758738,29.3107498,POINT (-94.7758738 29.3107498)
Mariner House Condominiums,"215 Postoffice St, Galveston",-94.7700576,29.3105544,POINT (-94.7700576 29.3105544)
Mariner Inn,"1602 Seawall Boulevard, Galveston",-94.7818911,29.2952078,POINT (-94.7818911 29.2952078)
Mario's Seawall Italian Restaurant,"628 Seawall Boulevard, Galveston",-94.7731772,29.3043293,POINT (-94.7731772 29.3043293)
Market Street Cottage,"1724 Market Street, Galveston",-94.7878669,29.3071737,POINT (-94.7878669 29.3071737)
Marlin Cruise Parking,"8115 Harborside Drive, Galveston",-94.8627191,29.2875693,POINT (-94.8627191 29.2875693)
Marshalls,"2711 61st Street, Galveston",-94.8306627,29.2705713,POINT (-94.8306627 29.2705713)
Martin Mysteries Oil Services,"1300 Coastwide Road, Galveston",-94.7870845,29.3246388,POINT (-94.7870845 29.3246388)
Marty's City Auto & Towing Service,"520 44th Street, Galveston",-94.8172657,29.2977099,POINT (-94.8172657 29.2977099)
Mary Moody Northen Endowment,"2628 Broadway Avenue J, Galveston",-94.7965403,29.2992236,POINT (-94.7965403 29.2992236)
Maud Moller House,"812 19th Street, Galveston",-94.7877604,29.3030149,POINT (-94.7877604 29.3030149)
Maze,"201 26th Street Suite 1, Galveston",-94.7979105,29.3055559,POINT (-94.7979105 29.3055559)
McGuire-Dent Recreation Center at Menard Park,"2222 28th Street, Galveston",-94.7933005,29.2873496,POINT (-94.7933005 29.2873496)
"McNatt Contracting, Inc.","7707 Bayside Avenue, Galveston",-94.8592522,29.2898384,POINT (-94.8592522 29.2898384)
Mechanic Street Lofts,"302 25th St unit h, Galveston",-94.796171,29.3054921,POINT (-94.796171 29.3054921)
Melody Beach House,"22609 Kennedy Drive, Galveston",-95.0528878,29.1325218,POINT (-95.0528878 29.1325218)
Menard Ganter House,"1209 Winnie Street, Galveston",-94.7807064,29.3057898,POINT (-94.7807064 29.3057898)
Menard House,"1605 33rd Street, Galveston",-94.8020822,29.2914014,POINT (-94.8020822 29.2914014)
Merimax Building,"2206 Church Street, Galveston",-94.7923542,29.3041352,POINT (-94.7923542 29.3041352)
Mermaid Cove,"4110 Surf Drive #8805, Galveston",-94.9432636,29.2018861,POINT (-94.9432636 29.2018861)
Metro by T-Mobile,"2523 Broadway Avenue J, Galveston",-94.7949749,29.2988056,POINT (-94.7949749 29.2988056)
MGR CAPITAL LLC,"1320 Seawall Boulevard, Galveston",-94.7790518,29.2974799,POINT (-94.7790518 29.2974799)
Mi Casa es Su Casa,"6102 Seawall Boulevard #109, Galveston",-94.8275823,29.2668472,POINT (-94.8275823 29.2668472)
Michael Gaertner Architects,"2413 Mechanic Street A, Galveston",-94.7956874,29.3056574,POINT (-94.7956874 29.3056574)
Michael W Price Insurance,"5002 Avenue R, Galveston",-94.8192492,29.280661,POINT (-94.8192492 29.280661)
Mike's Golf Cart Repair,"21515 Zachary Drive, Galveston",-95.0411027,29.1414775,POINT (-95.0411027 29.1414775)
Mikes bay house,"22903 Martes Street, Galveston",-95.0610462,29.1367662,POINT (-95.0610462 29.1367662)
Milton Pines Park and Pavilion,"4119 Mason Drive, Galveston",-95.045085,29.1425943,POINT (-95.045085 29.1425943)
Mind-Body Wellness co-op,"4920 D Seawall Boulevard, Galveston",-94.8159985,29.2732011,POINT (-94.8159985 29.2732011)
Mirabella,"7310 Seawall Blvd APT 602, Galveston",-94.8383507,29.2602726,POINT (-94.8383507 29.2602726)
Mobil,"602 Broadway Avenue J, Galveston",-94.77315,29.30553,POINT (-94.77315 29.30553)
Mobilelink,"2621 Broadway Avenue J, Galveston",-94.7961916,29.2985669,POINT (-94.7961916 29.2985669)
Mock & More Gallery,"2215-B Postoffice St, Galveston",-94.792807,29.3044633,POINT (-94.792807 29.3044633)
Model Laundry,"513-523 25th Street, Galveston",-94.796004,29.3033076,POINT (-94.796004 29.3033076)
Moments Event planning and design,"6511 Steward Rd #6E, Galveston",-94.8350919,29.2734467,POINT (-94.8350919 29.2734467)
MoneyGram,"1228 39th Street, Galveston",-94.8093709,29.2927498,POINT (-94.8093709 29.2927498)
Moody Early Childhood Center,"1110 21st Street, Galveston",-94.7885868,29.299381,POINT (-94.7885868 29.299381)
Moody garden,"4230 King Rail Circle, Galveston",-95.0899874,29.107902,POINT (-95.0899874 29.107902)
Moody Gardens,"1 Hope Blvd Galveston, TX 77554",-94.851790279908,29.275347609953,POINT (-94.851790279908 29.275347609953)
Moody Mansion,"2618 Broadway Avenue J, Galveston",-94.7962767,29.2995337,POINT (-94.7962767 29.2995337)
Moore-Climatic,"4423 Avenue P 1/2, Galveston",-94.8138062,29.2846425,POINT (-94.8138062 29.2846425)
Morales Fence Co,"2118 Avenue O, Galveston",-94.7883428,29.2944952,POINT (-94.7883428 29.2944952)
"Motel 6 Galveston, TX","7404 Avenue J, Galveston",-94.8548405,29.2882257,POINT (-94.8548405 29.2882257)
Motel for cruise,"1701 Market Street, Galveston",-94.7870635,29.3070445,POINT (-94.7870635 29.3070445)
Mr. Taco Cantina,"4114 Seawall Boulevard, Galveston",-94.8073942,29.2777379,POINT (-94.8073942 29.2777379)
MSRC,"8400 Teichman Road, Galveston",-94.8646905,29.2869925,POINT (-94.8646905 29.2869925)
Mt Moriah Baptist Church,"2728 Avenue K, Galveston",-94.7973568,29.2978339,POINT (-94.7973568 29.2978339)
Muril by the Bay,"3912 Reeves Drive, Galveston",-95.0447688,29.1456737,POINT (-95.0447688 29.1456737)
Murphy USA,"6810 Seawall Boulevard, Galveston",-94.83364,29.26315,POINT (-94.83364 29.26315)
Murphy's Pub,"213-215 22nd Street, Galveston",-94.7932415,29.3067907,POINT (-94.7932415 29.3067907)
My Galveston Getaway at the Maravilla,"9520 Seawall Boulevard, Galveston",-94.8597328,29.2486135,POINT (-94.8597328 29.2486135)
Mystic Krewe of Aquarius,"1517 31st Street, Galveston",-94.7996585,29.2925391,POINT (-94.7996585 29.2925391)
Nailed it galveston,"1020 13th Street, Galveston",-94.7801029,29.3024156,POINT (-94.7801029 29.3024156)
Nails and Spa of Texas,"6228 Broadway Street L, Galveston",-94.8414889,29.2905106,POINT (-94.8414889 29.2905106)
NAPA Auto Parts - Republic Parts Co,"3101 Broadway Avenue J, Galveston",-94.8013802,29.2972647,POINT (-94.8013802 29.2972647)
National Carriers Inc.,"3401 Church Street, Galveston",-94.806355,29.2999361,POINT (-94.806355 29.2999361)
Near the Pier Rentals,"2402 Avenue M, Galveston",-94.792185,29.2970852,POINT (-94.792185 29.2970852)
New World Builders LLC,"4910 Travis Drive, Galveston",-94.8210203,29.2887821,POINT (-94.8210203 29.2887821)
NewSound Hearing Centers,"6199 Central City Boulevard #122, Galveston",-94.8291288,29.2686016,POINT (-94.8291288 29.2686016)
Next Residence LLC,"3911 Warrior Court, Galveston",-95.001669,29.1715769,POINT (-95.001669 29.1715769)
Nia Culture Center,"2217 The Strand, Galveston",-94.7941601,29.3070637,POINT (-94.7941601 29.3070637)
No Worries Galveston,"17711 Termini-San Luis Pass Road, Galveston",-94.9878225,29.1734271,POINT (-94.9878225 29.1734271)
NOAA Restoration Center,"4700 Avenue U, Galveston",-94.8146054,29.2755857,POINT (-94.8146054 29.2755857)
O'Malley's Stage Door,"2022 Postoffice Street, Galveston",-94.7909854,29.3053236,POINT (-94.7909854 29.3053236)
O'Reilly Auto Parts,"3008 Broadway Avenue J, Galveston",-94.8005123,29.2984207,POINT (-94.8005123 29.2984207)
Ocean Grove Condominiums,"9420 Seawall Blvd, Galveston",-94.8581699,29.2487139,POINT (-94.8581699 29.2487139)
Ocean Inn,"3028 Seawall Boulevard, Galveston",-94.7966232,29.2847003,POINT (-94.7966232 29.2847003)
Ocean Star Offshore Drilling Rig and Museum,"2002 Wharf Road, Galveston",-94.7917377,29.3104255,POINT (-94.7917377 29.3104255)
Ocean’s 16Eleven,"1611 16th Street, Galveston",-94.782303,29.2964254,POINT (-94.782303 29.2964254)
Oceans Hall,"3005 Seawolf Park Boulevard B, Galveston",-94.8185523,29.3167923,POINT (-94.8185523 29.3167923)
"Oceanside Stroll to Sea | Top Notch Vacation Homes, LLC | by Rose","4111 Pointe West Drive, Galveston",-95.0980637,29.1036307,POINT (-95.0980637 29.1036307)
Odyssey Academy Galveston,"2412 61st Street, Galveston",-94.8293726,29.275633,POINT (-94.8293726 29.275633)
Off the Hook,"21225 Gulf Drive, Galveston",-95.0350201,29.1441745,POINT (-95.0350201 29.1441745)
Office Depot,"2711 61st Street, Galveston",-94.8310117,29.2712102,POINT (-94.8310117 29.2712102)
Official Port of Galveston - Lot B,"224 33rd Street, Galveston",-94.8054933,29.3034288,POINT (-94.8054933 29.3034288)
Official Port of Galveston SMP Cruise Parking Garage,"150 Rosenberg Street, Galveston",-94.79676,29.3072449,POINT (-94.79676 29.3072449)
"Official Site | The Grand 1894 Opera House (Galveston, TX)","2020 Postoffice St, Galveston",-94.7908543,29.3053967,POINT (-94.7908543 29.3053967)
Ohana Surf & Skate,"2814 Avenue R 1/2, Galveston",-94.7940432,29.2862924,POINT (-94.7940432 29.2862924)
Old Cellar Bar,"2013 Postoffice Street, Galveston",-94.7905585,29.3052711,POINT (-94.7905585 29.3052711)
Old Santa Fe Union Station,"123 Rosenberg Street, Galveston",-94.7970372,29.3065492,POINT (-94.7970372 29.3065492)
Olga's Hair Salon,"2407 45th Street, Galveston",-94.8131047,29.280866,POINT (-94.8131047 29.280866)
On Pointe,"4121 Pointe West Drive, Galveston",-95.0981641,29.103279,POINT (-95.0981641 29.103279)
On the Run,"4427 Broadway Avenue J, Galveston",-94.8167646,29.293301,POINT (-94.8167646 29.293301)
Oppe Elementary School,"2915 81st Street, Galveston",-94.8502284,29.263423,POINT (-94.8502284 29.263423)
Original Island Escape!,"1920 24th Street, Galveston",-94.7900495,29.2912302,POINT (-94.7900495 29.2912302)
Osprey Watch Vacation Rental,"11221 Bernice Drive, Galveston",-94.8824889,29.2357038,POINT (-94.8824889 29.2357038)
Ott Monument Works,"3928 Broadway Avenue J, Galveston",-94.8114456,29.2954875,POINT (-94.8114456 29.2954875)
Out Cast Charters,"1721 61st Street, Galveston",-94.8347277,29.2816072,POINT (-94.8347277 29.2816072)
Overkill Guide Serivve,"9301 Broadway Street, Galveston",-94.8738075,29.2886912,POINT (-94.8738075 29.2886912)
P4003,"2300 Ship Mechanic Row Street, Galveston",-94.7948085,29.3062136,POINT (-94.7948085 29.3062136)
Palacio de la Costa,"22508 Bay Point Drive, Galveston",-95.056895,29.138416,POINT (-95.056895 29.138416)
Palm House,"811 10th Street, Galveston",-94.7778336,29.3054221,POINT (-94.7778336 29.3054221)
Palm Shore Apartments,"417 Church St, Galveston",-94.7721023,29.3085594,POINT (-94.7721023 29.3085594)
Palmfront Hotel,"Seawall Boulevard, Galveston",-94.8030941,29.2800444,POINT (-94.8030941 29.2800444)
Parijatha (Coral Jasmine),"21232 Gulf Drive, Galveston",-95.0351914,29.1435052,POINT (-95.0351914 29.1435052)
"Park 2 Cruise Galveston, LLC","101 13th Street, Galveston",-94.7837887,29.3105049,POINT (-94.7837887 29.3105049)
Parker Elementary School,"6802 Jones Drive, Galveston",-94.8390199,29.2734241,POINT (-94.8390199 29.2734241)
Parker Robert O DDS,"1508 23rd Street, Galveston",-94.789995,29.29541,POINT (-94.789995 29.29541)
Parking,"51 21st Street, Galveston",-94.792904,29.3087051,POINT (-94.792904 29.3087051)
Parking Area,"224 33rd Street, Galveston",-94.8054947,29.3034356,POINT (-94.8054947 29.3034356)
Parking Lot,"3510-0116-2000, #001, Galveston",-94.7910647,29.2880608,POINT (-94.7910647 29.2880608)
Parking Lot P,"Unnamed Road, Galveston",-94.7749516,29.3134791,POINT (-94.7749516 29.3134791)
Parking utmb,"365-379 11th Street, Galveston",-94.7820206,29.3091755,POINT (-94.7820206 29.3091755)
ParkPostOffice.com,"1913 Postoffice Street, Galveston",-94.789312,29.305386,POINT (-94.789312 29.305386)
Peach at the Beach,"11221 Schwartz Drive, Galveston",-94.8833599,29.2372412,POINT (-94.8833599 29.2372412)
Peanut Butter Warehouse,"100 20th Street, Galveston",-94.7908921,29.3087443,POINT (-94.7908921 29.3087443)
Pelican Pointe,"4219 Green Heron Drive, Galveston",-95.0884414,29.1087762,POINT (-95.0884414 29.1087762)
Pepper Pavilon,"Obra Drive, Galveston",-95.0610392,29.1333137,POINT (-95.0610392 29.1333137)
PeyDirt,"3607 Avenue L, Galveston",-94.8066433,29.2940089,POINT (-94.8066433 29.2940089)
Phi Galveston,"2215 Terminal Drive, Galveston",-94.8553451,29.2670998,POINT (-94.8553451 29.2670998)
Philemon Ministries,"2905 Avenue M, Galveston",-94.798246,29.2952161,POINT (-94.798246 29.2952161)
Physical Therapy Services,"1810 23rd Street, Galveston",-94.7893476,29.2927938,POINT (-94.7893476 29.2927938)
Pier 21,"2100 Harborside Drive, Galveston",-94.7927814,29.3092461,POINT (-94.7927814 29.3092461)
Pirate's Perfect Pearl Vacation Rental,"3416 Petite Circle, Galveston",-94.9502865,29.2163232,POINT (-94.9502865 29.2163232)
Pirates Beach,"Pirates Aly Galveston, TX 77554",-94.9348632618785,29.2035640434977,POINT (-94.9348632618785 29.2035640434977)
Pirates Cove,"13831 Mutiny Lane, Galveston",-94.9392976,29.2059782,POINT (-94.9392976 29.2059782)
"Pirates Landing Townhouse Association, Inc.","621 21st St, Galveston",-94.7908109,29.3035413,POINT (-94.7908109 29.3035413)
Plant Leadership Systems,"2200 Market Street # 608, Galveston",-94.7933539,29.306019,POINT (-94.7933539 29.306019)
Playa San Luis,"25322 Intrepid Lane, Galveston",-95.0879125,29.1102464,POINT (-95.0879125 29.1102464)
Pleasure Pier 5D Theater Ride,"2424 Seawall Boulevard, Galveston",-94.7900113,29.2889626,POINT (-94.7900113 29.2889626)
POA of Pointe West,"4161 Pointe West Drive, Galveston",-95.0980245,29.1023941,POINT (-95.0980245 29.1023941)
Point Glass LLC,"7511 Broadway Street, Galveston",-94.8550745,29.2866858,POINT (-94.8550745 29.2866858)
Pointe West Beach Club,"4161 Pointe West Drive, Galveston",-95.0980245,29.1023941,POINT (-95.0980245 29.1023941)
pointe west beach rental,"4154 Green Heron Drive, Galveston",-95.0885344,29.1096345,POINT (-95.0885344 29.1096345)
Pointe West Resorts By AB Sea Resorts,"4231 Grassy Pointe Drive, Galveston",-95.1018568,29.0994206,POINT (-95.1018568 29.0994206)
Pointe West Vacation,"4211 Pointe West Drive UNIT 103, Galveston",-95.0982701,29.1018423,POINT (-95.0982701 29.1018423)
PointeWest.Rentals,"4150 Green Heron Drive, Galveston",-95.1102091,29.094734,POINT (-95.1102091 29.094734)
Porretto Beach,"10th Street at, Seawall Boulevard, Galveston",-94.7756915,29.3003817,POINT (-94.7756915 29.3003817)
Porretto Beach 26th & Seawall Boulevard,"2601 Seawall Boulevard, Galveston",-94.7915254,29.2875493,POINT (-94.7915254 29.2875493)
Port Aux Princes,"7000 N Holiday Dr, Galveston",-94.7742479,29.3182618,POINT (-94.7742479 29.3182618)
Port of Galveston Cruise Parking Terminal 10 North Lot,"1152 Royal Caribbean Circle, Galveston",-94.7832276,29.3136789,POINT (-94.7832276 29.3136789)
Port of Galveston Cruise Terminal 1,"2502 Harborside Drive, Galveston",-94.7972584,29.3080971,POINT (-94.7972584 29.3080971)
Port of Galveston Express Lot Cruise Parking,"2702 Harborside Drive, Galveston",-94.8003865,29.3074851,POINT (-94.8003865 29.3074851)
Port Of Galveston Parking & Cruise Terminals,"123 Rosenberg Street, Galveston",-94.7970765,29.3065514,POINT (-94.7970765 29.3065514)
Port of Galveston Pier 14 Parking Lot,"8677+9W, Galveston",-94.7851875,29.3134375,POINT (-94.7851875 29.3134375)
Port of Galveston Pier 25 Cruise Parking,"2502 Harborside Drive, Galveston",-94.7949089,29.308206,POINT (-94.7949089 29.308206)
Port of Galveston South Lot Cruise Parking Lot,"028 13th Street, Galveston",-94.7836379,29.3118936,POINT (-94.7836379 29.3118936)
Port of Galveston West Entrance,"4002 Port Industrial Road, Galveston",-94.8139803,29.30404,POINT (-94.8139803 29.30404)
Port of Galveston- West End Gate,"3902 Harborside Drive, Galveston",-94.8139643,29.3038493,POINT (-94.8139643 29.3038493)
Port parking,"111 18th Street, Galveston",-94.7892794,29.3089947,POINT (-94.7892794 29.3089947)
Port Parking,"202 37th Street, Galveston",-94.809512,29.302697,POINT (-94.809512 29.302697)
Powell Marine Engineering Complex,"200 Seawolf Parkway, Galveston",-94.8197707,29.314309,POINT (-94.8197707 29.314309)
Powhatan and Mattie Wren House,"1403 Texas 87, Galveston",-94.7817823,29.3024365,POINT (-94.7817823 29.3024365)
"Praveena Gupta, OD","700 University Boulevard, Galveston",-94.772803,29.3076035,POINT (-94.772803 29.3076035)
Premier Island Escape!,"1924 24th Street Rear, Galveston",-94.7900604,29.2912314,POINT (-94.7900604 29.2912314)
Premiere Discreet Aesthetics,"7820 Seawall Boulevard, Galveston",-94.8434473,29.2579455,POINT (-94.8434473 29.2579455)
Premium Covered Parking,"1152 Royal Caribbean Way, Galveston",-94.782081,29.3143198,POINT (-94.782081 29.3143198)
Premium Oil Corporation,"26471 Cat Tail Drive, Galveston",-95.100729,29.0998815,POINT (-95.100729 29.0998815)
Premium Parking - P4002,"2024 Seawall Boulevard, Galveston",-94.7860973,29.2926587,POINT (-94.7860973 29.2926587)
Princess Beauty Salon,"2019 53rd Street, Galveston",-94.8232862,29.2815167,POINT (-94.8232862 29.2815167)
Private,"22031 Guadalupe Drive, Galveston",-95.0532951,29.1442297,POINT (-95.0532951 29.1442297)
Q's Massage,"500 Seawall Boulevard Suite 200, Galveston",-94.7721853,29.3060574,POINT (-94.7721853 29.3060574)
QQ ArtSpace,"3622 85th Street, Galveston",-94.8493768,29.2553328,POINT (-94.8493768 29.2553328)
Quality Inn & Suites Beachfront,"5924 Seawall Boulevard, Galveston",-94.825967,29.268006,POINT (-94.825967 29.268006)
Queen Gypsy Inn,"4504 Fort Crockett Boulevard, Galveston",-94.811606,29.2764757,POINT (-94.811606 29.2764757)
Quick Escape,"26540 Mangrove Drive # 202, Galveston",-95.103994,29.1017748,POINT (-95.103994 29.1017748)
Quigg Baulard Cottage,"2628 Broadway Avenue J, Galveston",-94.7965621,29.2992272,POINT (-94.7965621 29.2992272)
Rage Cage,"1922 The Strand, Galveston",-94.7907229,29.3084538,POINT (-94.7907229 29.3084538)
Ragin Cajun Boat Trailer Services.,"6093 sea isle, Galveston",-95.043554,29.1430238,POINT (-95.043554 29.1430238)
Randalls Fuel Station,"2815 Central City Boulevard, Galveston",-94.8285997,29.2698885,POINT (-94.8285997 29.2698885)
"Raymond Banks Construction, LLC.","3028 Avenue Q, Galveston",-94.7978028,29.2882004,POINT (-94.7978028 29.2882004)
Ready Set Go,"2902 Seawall Boulevard, Galveston",-94.7948867,29.2857126,POINT (-94.7948867 29.2857126)
Rebecca Sealy Hospital,"404 Saint Marys Boulevard, Galveston",-94.7758686,29.3099984,POINT (-94.7758686 29.3099984)
Red Carpet Inn,"928 Ferry Road, Galveston",-94.771716,29.325894,POINT (-94.771716 29.325894)
Red Roof Inn,Galveston,-94.7977277,29.3013582,POINT (-94.7977277 29.3013582)
Red Roof PLUS+ Galveston - Beachfront,"3924 Avenue U, Galveston",-94.8058814,29.2794038,POINT (-94.8058814 29.2794038)
Redbox,"2326 61st Street, Galveston",-94.8309522,29.2761136,POINT (-94.8309522 29.2761136)
Reel Fishing Fever,"14305 Stewart Road, Galveston",-94.949692,29.206384,POINT (-94.949692 29.206384)
Reel Men Fishing Charters,"715 N Holiday Dr Dock B, Slip 24, Galveston",-94.7753074,29.3171983,POINT (-94.7753074 29.3171983)
Refresh Medispa,"2424 Mechanic Street, Galveston",-94.7961083,29.305864,POINT (-94.7961083 29.305864)
Regal Nails Salon & Spa,"6702 Seawall Boulevard, Galveston",-94.8329455,29.2651472,POINT (-94.8329455 29.2651472)
Rehab Care Group,"2228 Seawall Boulevard, Galveston",-94.7880522,29.2910737,POINT (-94.7880522 29.2910737)
Rehabilitation Commission,"4607 Fort Crockett Boulevard, Galveston",-94.8135507,29.2759428,POINT (-94.8135507 29.2759428)
René Wiley Gallery,"2128 Postoffice St, Galveston",-94.7922886,29.3050828,POINT (-94.7922886 29.3050828)
Renovations Galveston,"4206 Panola Drive, Galveston",-95.0426143,29.141815,POINT (-95.0426143 29.141815)
Rent-A-Center,"2705 61st Street M, Galveston",-94.830102,29.271692,POINT (-94.830102 29.271692)
Research Building 6,"301 8th Street, Galveston",-94.777676,29.3101461,POINT (-94.777676 29.3101461)
Rick's Beach Rentals,"17620 Termini-San Luis Pass Road, Galveston",-94.988039,29.174245,POINT (-94.988039 29.174245)
Right at Home,"1409 39th Street, Galveston",-94.809173,29.2913352,POINT (-94.809173 29.2913352)
Riviera Condos,"11949 Termini-San Luis Pass Rd, Galveston",-94.9024369,29.2231305,POINT (-94.9024369 29.2231305)
Rodeway Inn,"6107 Broadway Street, Galveston",-94.838569,29.287895,POINT (-94.838569 29.287895)
"Rogelio B. Fontanilla, CRNA","301 University Boulevard, Galveston",-94.7758738,29.3107498,POINT (-94.7758738 29.3107498)
Ron Hoover RV & Marine of Galveston,"8126 Broadway Street, Galveston",-94.862812,29.2864218,POINT (-94.862812 29.2864218)
Ronald McDonald House,"301 14th Street, Galveston",-94.7840336,29.308658,POINT (-94.7840336 29.308658)
Roof Garden,"2214 The Strand, Galveston",-94.7939038,29.3076434,POINT (-94.7939038 29.3076434)
Rosenberg Elementary School,"721 10th Street, Galveston",-94.7785359,29.3060557,POINT (-94.7785359 29.3060557)
Rosenberg Library,"2310 Sealy Avenue, Galveston",-94.7929895,29.3011526,POINT (-94.7929895 29.3011526)
Rosenberg Motel,"2027 25th Street, Galveston",-94.7913766,29.2900003,POINT (-94.7913766 29.2900003)
Ross 5,"4123 Pirates Alley, Galveston",-94.9366295,29.2043213,POINT (-94.9366295 29.2043213)
Ross Dress for Less,"6327 Stewart Road, Galveston",-94.8330319,29.2733692,POINT (-94.8330319 29.2733692)
"RSC, LLC","4508 Woodrow Avenue, Galveston",-94.8127968,29.2791138,POINT (-94.8127968 29.2791138)
Ryan R Jones Wedding Photography,"5616 Avenue Q, Galveston",-94.8270459,29.2805519,POINT (-94.8270459 29.2805519)
Sacred Heart Catholic Church (Holy Family Parish),"1302 Broadway Avenue J, Galveston",-94.7812966,29.3032927,POINT (-94.7812966 29.3032927)
Saengerfest Park,"2302 The Strand, Galveston",-94.7947785,29.3073608,POINT (-94.7947785 29.3073608)
Safari Beach,"4151 Pointe West Drive UNIT 202, Galveston",-95.0974085,29.1022569,POINT (-95.0974085 29.1022569)
Saints Constantine and Helen Serbian Orthodox Church,"4109 Avenue L, Galveston",-94.8125045,29.292442,POINT (-94.8125045 29.292442)
Sales Center at Galveston Seaside Resort,"19320 Termini-San Luis Pass Road, Galveston",-95.0134922,29.1625455,POINT (-95.0134922 29.1625455)
Saltwater Gospel,"4207 Kent Drive, Galveston",-95.0449529,29.1404181,POINT (-95.0449529 29.1404181)
Salty Beach Bed & Breakfast,"2520 Avenue P 1/2, Galveston",-94.7921703,29.2907173,POINT (-94.7921703 29.2907173)
Salty Dog Wash,"1902 Ursuline Street, Galveston",-94.7860385,29.296899,POINT (-94.7860385 29.296899)
San Domingo View Beach House,"13700 San Domingo Drive, Galveston",-94.9354926,29.2061673,POINT (-94.9354926 29.2061673)
San Luis Bridge Toll Plaza,"Unnamed Road, Galveston",-95.1116782,29.0921173,POINT (-95.1116782 29.0921173)
Sand 'N Sea | Galveston Vacation Rentals,"13706 Farm to Market Road 3005, Galveston",-94.9375351,29.2084697,POINT (-94.9375351 29.2084697)
Sand Bar beach rental,"22427 Kennedy Drive, Galveston",-95.0513202,29.1335529,POINT (-95.0513202 29.1335529)
Sand Castle Beach,"16708 Termini-San Luis Pass Rd Ste C Jamaica Beach, TX 77554",-94.896861,29.2281157,POINT (-94.896861 29.2281157)
Sand Castle HOA,"3700 83rd St, Galveston",-94.8470759,29.2552591,POINT (-94.8470759 29.2552591)
Sand Dollar,"25039 Sausalito Drive, Galveston",-95.0851644,29.1139034,POINT (-95.0851644 29.1139034)
Sand Dollar Autoplex,"8020 Broadway Street, Galveston",-94.8608958,29.2866847,POINT (-94.8608958 29.2866847)
Sandpiper Cove,"3916 Winnie Street, Galveston",-94.8119315,29.298024,POINT (-94.8119315 29.298024)
sandpiper rv,"715 North Holiday Drive, Galveston",-94.7763592,29.3194242,POINT (-94.7763592 29.3194242)
Sandpiper RV Resort,"201 Seawall Boulevard, Galveston",-94.7684624,29.3090688,POINT (-94.7684624 29.3090688)
Sandpiper Stay,"3506 Cove View Boulevard APT 1609, Galveston",-94.8675132,29.2467533,POINT (-94.8675132 29.2467533)
Sara campbell,"500 Seawall Blvd, Galveston",-94.7721924,29.306037,POINT (-94.7721924 29.306037)
Saracco Insurance Agency,"2702 Broadway Avenue J, Galveston",-94.796991,29.2992096,POINT (-94.796991 29.2992096)
Satori Elementary School,"2503 Sealy Avenue, Galveston",-94.7948246,29.30017,POINT (-94.7948246 29.30017)
Sawhney Charu DO,"301 University Boulevard, Galveston",-94.7758738,29.3107498,POINT (-94.7758738 29.3107498)
Schaefer Haus,"511 17th Street, Galveston",-94.7867776,29.3060371,POINT (-94.7867776 29.3060371)
School Of Health Profession,"1101 The Strand, Galveston",-94.7812133,29.3102643,POINT (-94.7812133 29.3102643)
SCOTT BUILDING,"4116 Avenue North 1/2, Galveston",-94.8115024,29.2895624,POINT (-94.8115024 29.2895624)
Scott Collegiate Academy,"4068 Avenue North 1/2, Galveston",-94.8111174,29.2894027,POINT (-94.8111174 29.2894027)
Scottish Inns,"928 Ferry Road, Galveston",-94.77181,29.3260126,POINT (-94.77181 29.3260126)
Sea Cove,"2827 Avenue Q Unit A, Galveston",-94.7954375,29.2884779,POINT (-94.7954375 29.2884779)
Sea Gull Shores Pocket Park 1,"3544 7 1/2 Mile Road, Galveston",-94.8784036,29.2399112,POINT (-94.8784036 29.2399112)
Sea Isle Bait Camp,"21706 Burnet Drive, Galveston",-95.0468828,29.1451915,POINT (-95.0468828 29.1451915)
Sea Isle Property Owners Association,"21704 Burnet Drive, Galveston",-95.0467666,29.1447397,POINT (-95.0467666 29.1447397)
Sea La Vie,"4019 Vista Boulevard, Galveston",-94.9442242,29.2029595,POINT (-94.9442242 29.2029595)
Sea Lore,"6102 Seawall Boulevard #359, Galveston",-94.8275823,29.2668472,POINT (-94.8275823 29.2668472)
Sea Scouts Base,"7511 Broadway Street, Galveston",-94.8550745,29.2866858,POINT (-94.8550745 29.2866858)
Sea Side Christian Academy,"6107 Broadway Street, Galveston",-94.838438,29.2877355,POINT (-94.838438 29.2877355)
Sea Star Base Galveston,"7509 Broadway Street, Galveston",-94.8547892,29.2865507,POINT (-94.8547892 29.2865507)
SeaBatical Galveston,"415 East Beach Drive #207, Galveston",-94.7565635,29.3147262,POINT (-94.7565635 29.3147262)
Seahorse Landing,"4103 7th Street, Galveston",-95.0705736,29.1244058,POINT (-95.0705736 29.1244058)
Seahouse Construction,"8244 Harborside Drive, Galveston",-94.8634639,29.2864677,POINT (-94.8634639 29.2864677)
Sealy & Smith Foundation,"2200 Market Street # 500, Galveston",-94.7933539,29.306019,POINT (-94.7933539 29.306019)
SeaPoint,"26411 Cat Tail Drive Unit 102, Galveston",-95.099051,29.1008467,POINT (-95.099051 29.1008467)
Seaport Village Apartment Homes,"7200 Heards Lane, Galveston",-94.8449578,29.2748834,POINT (-94.8449578 29.2748834)
Searenity Pointe,"4150 Green Heron Drive, Galveston",-95.0886855,29.1097186,POINT (-95.0886855 29.1097186)
Seas the moment PW,"4158 Green Heron Drive, Galveston",-95.0884821,29.1094997,POINT (-95.0884821 29.1094997)
"Seaside Home Design, LLC","RR 4 Box 225D3, Galveston",-95.0545954,29.1378712,POINT (-95.0545954 29.1378712)
Seaside Properties,"3827 Las Palmas Street, Galveston",-94.9477275,29.2045778,POINT (-94.9477275 29.2045778)
Seaside Shimmer,Galveston,-94.868158,29.2431822,POINT (-94.868158 29.2431822)
Seawall Cabana,"1808 31st Street, Galveston",-94.7984417,29.2903705,POINT (-94.7984417 29.2903705)
Seawall Urban Park,"801 Seawall Boulevard, Galveston",-94.7771249,29.2986295,POINT (-94.7771249 29.2986295)
Seawolf Park,"100 Seawolf Park Boulevard, Galveston",-94.7791724,29.3349069,POINT (-94.7791724 29.3349069)
Sedation Safety Resources,"6052 Sea Isle, Galveston",-95.0437098,29.1429896,POINT (-95.0437098 29.1429896)
Seeding Galveston,"3318 Ursuline Street, Galveston",-94.8029645,29.2930268,POINT (-94.8029645 29.2930268)
Segcity Segway Galveston Tours,"519 25th Street, Galveston",-94.79588,29.303251,POINT (-94.79588 29.303251)
Seibel Student Services Center,"3030 Texas Clipper Road, Galveston",-94.8176582,29.3161553,POINT (-94.8176582 29.3161553)
Selectric Services,"4123 Avenue Q, Galveston",-94.8102019,29.2845712,POINT (-94.8102019 29.2845712)
Serene Shores at Pointe West Resort,"25730 Spotted Sandpiper Drive, Galveston",-95.092046,29.106695,POINT (-95.092046 29.106695)
Serenity Dermatology,"1917 Broadway Avenue J, Galveston",-94.7879086,29.300783,POINT (-94.7879086 29.300783)
SERVPRO of Galveston Island and Lake Jackson,"711 43rd Street, Galveston",-94.8160304,29.2963463,POINT (-94.8160304 29.2963463)
Shamrock,"4827 Broadway Avenue J, Galveston",-94.8214571,29.2921025,POINT (-94.8214571 29.2921025)
Shane McDermott Realty,"2627 Avenue K, Galveston",-94.7960949,29.2977935,POINT (-94.7960949 29.2977935)
Shell,"3627 Broadway Avenue J, Galveston",-94.8076024,29.2954647,POINT (-94.8076024 29.2954647)
Shell By The Sea,"6102 Seawall Boulevard #162, Galveston",-94.8275823,29.2668472,POINT (-94.8275823 29.2668472)
Shiloh AME Church,"1310 29th Street, Galveston",-94.7977236,29.2953464,POINT (-94.7977236 29.2953464)
Shop-N-Drive,"5327 Broadway Avenue J, Galveston",-94.8270855,29.2905259,POINT (-94.8270855 29.2905259)
Shore Fun,"22529 Kennedy Drive, Galveston",-95.0524776,29.1327868,POINT (-95.0524776 29.1327868)
Shore Havin' Fun Vacation Rental,"3418 Petite Circle, Galveston",-94.9502095,29.2162052,POINT (-94.9502095 29.2162052)
Shriners Burns Hospital,"815 Market Street, Galveston",-94.7769547,29.3097082,POINT (-94.7769547 29.3097082)
"Sidney Tregré, REALTOR","2615 Broadway Avenue J, Galveston",-94.7959674,29.2986881,POINT (-94.7959674 29.2986881)
Silk Purse,"1124 37th Street, Galveston",-94.8072667,29.2942306,POINT (-94.8072667 29.2942306)
Silverscape,"4115 Silver Reef Court, Galveston",-94.9455005,29.2001526,POINT (-94.9455005 29.2001526)
Sir Patrick Pictures,"2915 Avenue L, Galveston",-94.7988898,29.2960854,POINT (-94.7988898 29.2960854)
Skyline Building Services,"7700 Seawall Boulevard UNIT 1102, Galveston",-94.8419503,29.2583614,POINT (-94.8419503 29.2583614)
Sleep Inn & Suites Galveston Island,"6628 Broadway Street, Galveston",-94.8452621,29.289652,POINT (-94.8452621 29.289652)
SmartStyle Hair Salon(Inside Walmart),"6702 Seawall Boulevard, Galveston",-94.8325149,29.2649411,POINT (-94.8325149 29.2649411)
So Vein IV Therapy,"2910 53rd Street, Galveston",-94.8201903,29.2741647,POINT (-94.8201903 29.2741647)
Solar Supply,"7805 Bayside Avenue, Galveston",-94.8598528,29.2897032,POINT (-94.8598528 29.2897032)
Soloway Roger D MD,"301 University Boulevard, Galveston",-94.7758738,29.3107498,POINT (-94.7758738 29.3107498)
Sonrise Retreat,"23175 Fresca Street, Galveston",-95.0626502,29.1293932,POINT (-95.0626502 29.1293932)
Sound Bar,"2411 Mechanic Street, Galveston",-94.7955784,29.3056645,POINT (-94.7955784 29.3056645)
Source,"1201 Avenue M, Galveston",-94.778628,29.3005005,POINT (-94.778628 29.3005005)
South Coast Inspections,"13809 Stewart Road, Galveston",-94.9393693,29.2109099,POINT (-94.9393693 29.2109099)
Southeast Texas Poison Center,"301 University Blvd. 3.112 Trauma Bldg., Galveston",-94.7787105,29.3120341,POINT (-94.7787105 29.3120341)
Southern Spears Surf Shop,"6026 Seawall Boulevard, Galveston",-94.8259595,29.2672098,POINT (-94.8259595 29.2672098)
Southern Tide Golf Carts,"21430 Termini-San Luis Pass Road, Galveston",-95.0392133,29.1424451,POINT (-95.0392133 29.1424451)
SP+ Parking,"2083 Ship Mechanic Row Street, Galveston",-94.7910663,29.3065367,POINT (-94.7910663 29.3065367)
Spectacular in Sea Isle!,"21922 Matagorda Drive, Galveston",-95.0504656,29.1430209,POINT (-95.0504656 29.1430209)
Speedy Express 21,"6101 Broadway Avenue J, Galveston",-94.8381583,29.2879307,POINT (-94.8381583 29.2879307)
Spirit of Sea Aggieland,"Classroom Lab Building, Building 3007, Galveston",-94.8187846,29.3151847,POINT (-94.8187846 29.3151847)
Spiritual True Church,Galveston,-94.7980014,29.294418,POINT (-94.7980014 29.294418)
Spoor Field,"4102 Avenue Q, Galveston",-94.8106251,29.2850792,POINT (-94.8106251 29.2850792)
SpringHill Suites by Marriott Galveston Island,"6303 Broadway Street, Galveston",-94.8404431,29.2878353,POINT (-94.8404431 29.2878353)
St Augustine of Hippo Episcopal Church,"1410 41st Street, Galveston",-94.8111591,29.2910005,POINT (-94.8111591 29.2910005)
St. Patrick Catholic Church (Holy Family Parish),"1010 35th Street, Galveston",-94.8053011,29.296193,POINT (-94.8053011 29.296193)
StarFine Furniture & Mattress,"3727 Broadway Avenue J, Galveston",-94.8086837,29.2954854,POINT (-94.8086837 29.2954854)
Stella Mare RV Resort,"3418 Stella Mare Lane Lot 98, Galveston",-94.8816109,29.2405186,POINT (-94.8816109 29.2405186)
Stephens John MD,"301 University Boulevard, Galveston",-94.7758738,29.3107498,POINT (-94.7758738 29.3107498)
Sterling Realtors Galveston Vacation Rentals,"6240 Sea Isle, Galveston",-95.0435452,29.1430292,POINT (-95.0435452 29.1430292)
Stewart Beach Condos,"325 Church St, Galveston",-94.7708761,29.3091137,POINT (-94.7708761 29.3091137)
Stewart Title Company,"13680 Farm to Market Road 3005, Galveston",-94.9367661,29.2088996,POINT (-94.9367661 29.2088996)
Strand parking,"109 20th Street, Galveston",-94.7914609,29.3086083,POINT (-94.7914609 29.3086083)
Student Alternative Instructional Learning Center,Galveston,-94.8244564,29.2777634,POINT (-94.8244564 29.2777634)
Studio 3 Salon and Spa,"1021 61st Street Suite 200A, Galveston",-94.8376015,29.2870299,POINT (-94.8376015 29.2870299)
Suderman Stevedores,"37 Pier 21, Galveston",-94.7927457,29.3096285,POINT (-94.7927457 29.3096285)
"Sue J. Davis, LCDC",Galveston,-94.7970765,29.3065514,POINT (-94.7970765 29.3065514)
Sugar's Inn,"upstairs, 2401 Church Street, Galveston",-94.7944535,29.3031183,POINT (-94.7944535 29.3031183)
Sunny and Chair,"4123 Valer Drive, Galveston",-95.0622848,29.1278854,POINT (-95.0622848 29.1278854)
Sunny Beach,"11215 Bernice Dr Galveston, TX 77554",-94.8823580235709,29.2338480477905,POINT (-94.8823580235709 29.2338480477905)
Sunoco,"3825 Broadway Avenue J, Galveston",-94.8100056,29.2949998,POINT (-94.8100056 29.2949998)
Sunrise Breeze,"4206 King Rail Circle, Galveston",-95.0894178,29.108558,POINT (-95.0894178 29.108558)
Sunrise Vacation Rental & Home Cleaning,"1228 Avenue M half, Galveston",-94.7794543,29.3005943,POINT (-94.7794543 29.3005943)
Sunset Beach Retreat,"4221 Pointe West Drive, Galveston",-95.0986334,29.1020683,POINT (-95.0986334 29.1020683)
Sunset Cove,"20710 Farm to Market Road 3005, Galveston",-95.0311546,29.1476937,POINT (-95.0311546 29.1476937)
Sunset Escapes- Cozy Beach Cottage,"1209 17th Street, Galveston",-94.7845765,29.2996944,POINT (-94.7845765 29.2996944)
Sunset Kisses Cottage,"25411 Spotted Sandpiper Drive, Galveston",-95.0900281,29.1104382,POINT (-95.0900281 29.1104382)
Sunset Marina @ Offatts Bayou,"9501 Teichman Road #9415, Galveston",-94.876282,29.280817,POINT (-94.876282 29.280817)
Sunset Seawall,"1828 Bernardo De Galvez Avenue, Galveston",-94.78455,29.293575,POINT (-94.78455 29.293575)
Sunset Siesta,"27030 Estuary Drive #202, Galveston",-95.110306,29.0946618,POINT (-95.110306 29.0946618)
Sunshine Center Inc,"1726 21st Street, Galveston",-94.7870554,29.2939674,POINT (-94.7870554 29.2939674)
Suntastic Adventures LLC,"Sea Isle, Galveston",-95.043554,29.1430238,POINT (-95.043554 29.1430238)
Super 8 by Wyndham Galveston,"2825 1/2 B 61st Street, Galveston",-94.8283551,29.2678069,POINT (-94.8283551 29.2678069)
Surf 31,"4131 King Rail Circle, Galveston",-95.0892957,29.1095596,POINT (-95.0892957 29.1095596)
Surf Delight Beach House,"Surf Drive, Galveston",-94.942613,29.2013032,POINT (-94.942613 29.2013032)
Surf Motel & Apartments,"928 Avenue M, Galveston",-94.7759802,29.3015425,POINT (-94.7759802 29.3015425)
Surfer Girls Houses,"2512 38th Street, Galveston",-94.8044695,29.2821362,POINT (-94.8044695 29.2821362)
Swim Lessons,"4115 Avenue O, Galveston",-94.8116315,29.287337,POINT (-94.8116315 29.287337)
Swischuk Leonard E MD,"301 University Boulevard, Galveston",-94.7758738,29.3107498,POINT (-94.7758738 29.3107498)
T & T Marine,"9723 Teichman Road, Galveston",-94.8794214,29.2800947,POINT (-94.8794214 29.2800947)
T & T Offshore,"2915 Todd Road, Galveston",-94.8026897,29.3127289,POINT (-94.8026897 29.3127289)
T&T Marine Salvage INC,"8410 Teichman Road, Galveston",-94.8651682,29.2873315,POINT (-94.8651682 29.2873315)
Taj MaHollub,"25114 Sausalito Drive, Galveston",-95.0861,29.1137861,POINT (-95.0861 29.1137861)
Tantalize Tanning Spa,"2218 61st Street, Galveston",-94.8314574,29.2768137,POINT (-94.8314574 29.2768137)
Target,"6128 Broadway Street, Galveston",-94.8404063,29.2910348,POINT (-94.8404063 29.2910348)
"Taste of the Strand Food Tours, Galveston","102 20th Street, Galveston",-94.7908946,29.3086567,POINT (-94.7908946 29.3086567)
Tea'ze Daiquiris To Go,"4110 Seawall Boulevard, Galveston",-94.8072154,29.2778682,POINT (-94.8072154 29.2778682)
"Teen Health Center, Inc.","Ball High School Room 1014, 4115 Avenue O, Galveston",-94.8107466,29.2880433,POINT (-94.8107466 29.2880433)
Terramar,"22918 Lunes Street, Galveston",-95.0615029,29.1361209,POINT (-95.0615029 29.1361209)
Tetra Technologies Inc,"Bradner, Galveston",-94.8070044,29.3183715,POINT (-94.8070044 29.3183715)
Texaco,"6101 Broadway Street, Galveston",-94.8380791,29.2879576,POINT (-94.8380791 29.2879576)
Texaco Galveston,"1928 Broadway Avenue J, Galveston",-94.7883262,29.301321,POINT (-94.7883262 29.301321)
Texas A&M fishing Pier,"Powell Marine Engineering Complex, 3031 Seawolf Park Boulevard, Galveston",-94.820738,29.3132,POINT (-94.820738 29.3132)
Texas Building Lofts,"415 Kempner St, Galveston",-94.7925611,29.3052165,POINT (-94.7925611 29.3052165)
Texas Camp Company,"14901 Farm to Market Road 3005, Galveston",-94.9573424,29.1936722,POINT (-94.9573424 29.1936722)
Texas Campgrounds Club,"18100 Termini-San Luis Pass Road, Galveston",-94.9915121,29.1713063,POINT (-94.9915121 29.1713063)
Texas Coastal Realty,"801 East Beach Drive, Galveston",-94.7546659,29.3158765,POINT (-94.7546659 29.3158765)
Texas Department Criminal Justice Hospital,"809 Harborside Drive, Galveston",-94.7778832,29.3124227,POINT (-94.7778832 29.3124227)
Texas Seaport Museum,"2200 Wharf Road, Galveston",-94.7934847,29.3091077,POINT (-94.7934847 29.3091077)
Texas Window Cleaning,"1811 52nd Street, Galveston",-94.8228186,29.283896,POINT (-94.8228186 29.283896)
The 1890 Freeman House,"1711 Postoffice St, Galveston",-94.7870674,29.3059964,POINT (-94.7870674 29.3059964)
The Artist's Studio & Gallery,"1447 19th Street, Galveston",-94.7860735,29.2969473,POINT (-94.7860735 29.2969473)
The Blue Coconut,"4027 Vista Boulevard, Galveston",-94.9437939,29.2022609,POINT (-94.9437939 29.2022609)
The Blue Pearl Vacation Rental,"3919 San Jacinto Drive, Galveston",-95.0435859,29.1462186,POINT (-95.0435859 29.1462186)
The BlueCockatoo Beachside Rental,"4017 Las Palmas Street, Galveston",-94.9448513,29.2025772,POINT (-94.9448513 29.2025772)
The Bryan Museum,"1315 21st Street, Galveston",-94.7890034,29.2974184,POINT (-94.7890034 29.2974184)
The Castle Galveston,"2111 26th Street, Galveston",-94.7922995,29.2890845,POINT (-94.7922995 29.2890845)
The Church of Jesus Christ of Latter-day Saints,"3114 77th Street, Galveston",-94.842757,29.2612405,POINT (-94.842757 29.2612405)
The Club of the Isle,"3433 Cove View Boulevard, Galveston",-94.8693975,29.2462217,POINT (-94.8693975 29.2462217)
The Coral Bungalow,"3116 Avenue S, Galveston",-94.7973509,29.2845664,POINT (-94.7973509 29.2845664)
The Coral House,"1610 21st Street, Galveston",-94.7875323,29.2950657,POINT (-94.7875323 29.2950657)
The dawn condo,"7160-7278 Seawall Boulevard, Galveston",-94.8364926,29.2614014,POINT (-94.8364926 29.2614014)
The Dawn Oceanfront Bliss Condominium,"7000 Seawall Blvd APT 215, Galveston",-94.8356196,29.2621609,POINT (-94.8356196 29.2621609)
the Galveston Island Swim Team,"4115 Avenue O, Galveston",-94.8116315,29.287337,POINT (-94.8116315 29.287337)
The George Manor,"1502 Market Street, Galveston",-94.7850404,29.3080564,POINT (-94.7850404 29.3080564)
The Guitar Lounge,"2527 Bernardo De Galvez Avenue, Galveston",-94.7925472,29.2910362,POINT (-94.7925472 29.2910362)
The Gulf Goddess,"22304 Kennedy Drive, Galveston",-95.050212,29.1342839,POINT (-95.050212 29.1342839)
The Happy Mullet,"4207 Green Heron Drive, Galveston",-95.0880868,29.1090008,POINT (-95.0880868 29.1090008)
The Haynes Institue Of Collaborative Studies,"8610 Seawall Boulevard, Galveston",-94.8503824,29.253355,POINT (-94.8503824 29.253355)
"The Hodge Law Firm, PLLC","1301 Market Street, Galveston",-94.7825569,29.308146,POINT (-94.7825569 29.308146)
The Home Depot,"702 65th Street, Galveston",-94.8418557,29.2907245,POINT (-94.8418557 29.2907245)
The Kettle House,"14106 Miramar Drive, Galveston",-94.9442083,29.2047313,POINT (-94.9442083 29.2047313)
The Kislyuk Retreat.,"4218 Santiago Circle, Galveston",-94.9174117,29.22441,POINT (-94.9174117 29.22441)
The Mansard House,"1101 23rd Street, Galveston",-94.7918694,29.2988853,POINT (-94.7918694 29.2988853)
The Meridian,"2228 Seawall Boulevard, Galveston",-94.7884207,29.2910329,POINT (-94.7884207 29.2910329)
The Naked Mermaid Condo,"7000 Seawall Blvd Unit 1134, Galveston",-94.8356196,29.2621609,POINT (-94.8356196 29.2621609)
The O'Donohoe Agency - Allstate Insurance Agent,"5928 Stewart Road, Galveston",-94.8300694,29.2763775,POINT (-94.8300694 29.2763775)
The Oceanfront Galveston Apartments,"7820 Seawall Blvd, Galveston",-94.8430404,29.2578194,POINT (-94.8430404 29.2578194)
The Old Galveston Trading Company,"2115 Postoffice Street, Galveston",-94.791834,29.304724,POINT (-94.791834 29.304724)
The Oleander Hotel Galveston,"520 20th Street, Galveston",-94.7896871,29.3049053,POINT (-94.7896871 29.3049053)
The Palms at Cove View Condominiums,"3506 Cove View Blvd, Galveston",-94.8685012,29.2467063,POINT (-94.8685012 29.2467063)
The Park at Cedar Lawn,"4400 Ursuline Street, Galveston",-94.8147933,29.2903325,POINT (-94.8147933 29.2903325)
The Phoenician by the Sea,"4017 Vista Boulevard, Galveston",-94.9442261,29.2030568,POINT (-94.9442261 29.2030568)
The Potter's House,"3618 Broadway Avenue J, Galveston",-94.8077427,29.2963665,POINT (-94.8077427 29.2963665)
The Proletariat Gallery & Public House,"2221 Market Street #100, Galveston",-94.7935713,29.3053353,POINT (-94.7935713 29.3053353)
The R. Waverley Smith Memorial Pavilion,"221 University Boulevard, Galveston",-94.7764963,29.311521,POINT (-94.7764963 29.311521)
The Rooftop Bar,"2300 Ship Mechanic Row Street, Galveston",-94.7948095,29.3062164,POINT (-94.7948095 29.3062164)
The Rosy Spoonbill,"4130 Green Heron Drive, Galveston",-95.0892551,29.1102862,POINT (-95.0892551 29.1102862)
The Rustic Sea of Galveston,"809 Sealy Avenue, Galveston",-94.7755842,29.3052294,POINT (-94.7755842 29.3052294)
The Salty Dog,"21404 Gulf Drive, Galveston",-95.0377935,29.1418365,POINT (-95.0377935 29.1418365)
"The San Luis Resort, Spa and Conference Center","5222 Seawall Boulevard, Galveston",-94.8182391,29.2725405,POINT (-94.8182391 29.2725405)
The Sea la Vie,"3506 Cove View Boulevard, Galveston",-94.867468,29.2464384,POINT (-94.867468 29.2464384)
The Sea Turtle Getaway,"3622 Avenue S, Galveston",-94.8033381,29.2829941,POINT (-94.8033381 29.2829941)
The Strand,"101 Kempner Street, Galveston",-94.793776,29.3079993,POINT (-94.793776 29.3079993)
The Studio Experience Gallery and Fine Art Printers,"2327 Winnie Street, Galveston",-94.7938331,29.3024723,POINT (-94.7938331 29.3024723)
The Tattoo Shop,"5702 Stewart Road, Galveston",-94.8273556,29.2773944,POINT (-94.8273556 29.2773944)
The Texas Veneer Dentist,"3314 Avenue O, Galveston",-94.8020483,29.2909395,POINT (-94.8020483 29.2909395)
"The Tremont House, Galveston, a Tribute Portfolio Hotel","2300 Ship Mechanic Row Street, Galveston",-94.7948095,29.3062164,POINT (-94.7948095 29.3062164)
The UPS Store,"6341 Stewart Road, Galveston",-94.8347802,29.2737279,POINT (-94.8347802 29.2737279)
The Victorian Condominiums,"6300 Seawall Blvd, Galveston",-94.8306665,29.2653785,POINT (-94.8306665 29.2653785)
The Villa Bed and Breakfast,"1723 Rosenberg Street, Galveston",-94.7922346,29.292475,POINT (-94.7922346 29.292475)
The Yellow Beach House,"819 9th Street, Galveston",-94.7765803,29.3054737,POINT (-94.7765803 29.3054737)
Therapeutic Health Works,"2114 Sealy Avenue, Galveston",-94.790623,29.3016945,POINT (-94.790623 29.3016945)
Tiara on the Beach Condoiminiums,"4918 Seawall Blvd Suite c, Galveston",-94.815802,29.2729846,POINT (-94.815802 29.2729846)
Tideway Physical Therapy & Rehab,"Aquatic Entrance, 6444 Central City Boulevard, Galveston",-94.831981,29.2669112,POINT (-94.831981 29.2669112)
Tiger Tanks Offshore Rental,"1300 Coastwide Road, Galveston",-94.787048,29.324723,POINT (-94.787048 29.324723)
Timeless Tides,"1309 13th Street, Galveston",-94.7797356,29.3000059,POINT (-94.7797356 29.3000059)
Tip'Sea Inn,"1811 Winnie Street, Galveston",-94.7876397,29.3039838,POINT (-94.7876397 29.3039838)
Tom's Thumb by Cornelius Nursery,"2014 45th Street, Galveston",-94.81374,29.284067,POINT (-94.81374 29.284067)
Top Notch Vacation Homes | by Rose,"4110 Sandhill Crane Way, Galveston",-95.0959968,29.1048006,POINT (-95.0959968 29.1048006)
"Total Balance Health & Wellness By Tonie Wingate, LMT","2829 North Sonny Lane, Galveston",-94.9055355,29.2372637,POINT (-94.9055355 29.2372637)
Touch of Thai,"6618 Stewart Road, Galveston",-94.8367796,29.2736189,POINT (-94.8367796 29.2736189)
TownePlace Suites by Marriott Galveston Island,"9540 Seawall Boulevard, Galveston",-94.860647,29.248753,POINT (-94.860647 29.248753)
Toyota Service,Galveston,-94.85898,29.2867862,POINT (-94.85898 29.2867862)
Trade Winds the Beach Club,"801 E Beach Dr BC 0612, Galveston",-94.7549211,29.3157539,POINT (-94.7549211 29.3157539)
Transportation Department,"3115 Market Street, Galveston",-94.8035622,29.302533,POINT (-94.8035622 29.302533)
"Travel Counselors, Inc.","2528 Avenue H, Galveston",-94.7959297,29.3013921,POINT (-94.7959297 29.3013921)
Treasure Island Trophies & Engraving,"4528 Avenue S Up, Galveston",-94.8137516,29.2802418,POINT (-94.8137516 29.2802418)
Tremont hotel,"Mechanic Street, Galveston",-94.789504,29.307483,POINT (-94.789504 29.307483)
Tremont Street Apartments,"1417 23rd St, Galveston",-94.790744,29.296061,POINT (-94.790744 29.296061)
Trinity Episcopal School,"720 23rd Street Rear, Galveston",-94.7921866,29.3025051,POINT (-94.7921866 29.3025051)
Tru by Hilton Galveston,"4302 Seawall Boulevard, Galveston",-94.8089572,29.2770817,POINT (-94.8089572 29.2770817)
Trumpet Sculpture,"2217 The Strand, Galveston",-94.7941687,29.3069754,POINT (-94.7941687 29.3069754)
Tuesday Morning,"2727 61st Street, Galveston",-94.8301367,29.2701307,POINT (-94.8301367 29.2701307)
TurnKey Vacation Rentals - Galveston,"6341 Stewart Road #181, Galveston",-94.8347187,29.273798,POINT (-94.8347187 29.273798)
Tylka Law Firm,"5316 Broadway Avenue J e, Galveston",-94.8274548,29.2916318,POINT (-94.8274548 29.2916318)
UFCU ATM,"4015 Avenue Q, Galveston",-94.807822,29.284711,POINT (-94.807822 29.284711)
Ultra Island Escape,"2328 Avenue P 1/2, Galveston",-94.7900148,29.2912073,POINT (-94.7900148 29.2912073)
United Way of Galveston,"123 25th Street #2030, Galveston",-94.7970101,29.3066829,POINT (-94.7970101 29.3066829)
University Apartments,"602 Seawolf Parkway, Galveston",-94.8141095,29.3179901,POINT (-94.8141095 29.3179901)
University Place Apartments,"711 St Marys Blvd, Galveston",-94.7758444,29.3070758,POINT (-94.7758444 29.3070758)
Up the creek,"1910 Ursuline Street, Galveston",-94.7863564,29.2969249,POINT (-94.7863564 29.2969249)
Upholstery Plus Cleaners,"5610 Lafitte Avenue, Galveston",-94.8278221,29.2827926,POINT (-94.8278221 29.2827926)
Upstairs Art Studio,"2328 The Strand, Galveston",-94.7953363,29.3072022,POINT (-94.7953363 29.3072022)
Upward Hope Academy,"3301 Church Street, Galveston",-94.8049912,29.3002568,POINT (-94.8049912 29.3002568)
Urgent care,"4222 Seawall Boulevard, Galveston",-94.8082065,29.2773197,POINT (-94.8082065 29.2773197)
US Army Corps of Engineers - Jadwin Building,"2000 Fort Point Road, Galveston",-94.7722588,29.3300917,POINT (-94.7722588 29.3300917)
US Coast Guard,"3000 Fort Point Road, Galveston",-94.7699629,29.331414,POINT (-94.7699629 29.331414)
US Commerce Department,"4700 Avenue U, Galveston",-94.8148535,29.2757323,POINT (-94.8148535 29.2757323)
US District Court Clerk,"601 25th Street #411, Galveston",-94.7959433,29.3024269,POINT (-94.7959433 29.3024269)
US Immigration & Customs Enfc,"601 25th Street #2, Galveston",-94.7959781,29.3024433,POINT (-94.7959781 29.3024433)
USMC Reserve Center,Galveston,-94.7677953,29.3356015,POINT (-94.7677953 29.3356015)
UTMB - Department of Ophthalmology,"700 University Boulevard, Galveston",-94.7730232,29.3076689,POINT (-94.7730232 29.3076689)
"UTMB - Public Parking, Galveston Hospitals","200 University Boulevard, Galveston",-94.7761922,29.3118965,POINT (-94.7761922 29.3118965)
UTMB 17E,"113-191 11th Street, Galveston",-94.7802489,29.3118539,POINT (-94.7802489 29.3118539)
UTMB Alumni Field House,"301 Holiday Drive, Galveston",-94.7730484,29.3121337,POINT (-94.7730484 29.3121337)
UTMB Geriatric Medicine,"700 University Boulevard, Galveston",-94.7728711,29.307643,POINT (-94.7728711 29.307643)
UTMB Health Blocker Burn Unit - Galveston,"712 Texas Avenue 2nd floor, Galveston",-94.7780584,29.3114867,POINT (-94.7780584 29.3114867)
UTMB Health Children's Hospital - Galveston,"301 8th Street floor, Galveston",-94.7769086,29.3103147,POINT (-94.7769086 29.3103147)
UTMB Health Heart Station and Cardiac Catheterization Lab - Galveston,"712 Texas Avenue Suite 6.406, Galveston",-94.7762743,29.3125358,POINT (-94.7762743 29.3125358)
UTMB Health Plans Inc,"123 25th Street # 123, Galveston",-94.7970765,29.3065514,POINT (-94.7970765 29.3065514)
UTMB Health Transplant Services - Galveston,"1005 Harborside Drive f6, Galveston",-94.7786476,29.311276,POINT (-94.7786476 29.311276)
UTMB Parking Garage 3,"410 9th Street, Galveston",-94.7783749,29.309174,POINT (-94.7783749 29.309174)
UTMB School of Nursing,"1114 Mechanic Street, Galveston",-94.7807305,29.3102329,POINT (-94.7807305 29.3102329)
"UTMB Truman Graves Blocker, Jr. Medical Research Building (MRB)","224 11th Street, Galveston",-94.7802302,29.3104099,POINT (-94.7802302 29.3104099)
VACATION ON CANVAS GALLERY,"2204 Postoffice Street, Galveston",-94.7924939,29.3050017,POINT (-94.7924939 29.3050017)
Vacation rental,"23023 Cuadro Street, Galveston",-95.0613019,29.133661,POINT (-95.0613019 29.133661)
Vacation Rental Galveston,"1314 25th Street, Galveston",-94.7929126,29.2964031,POINT (-94.7929126 29.2964031)
Valerie Ruth Moffitt,"4119 Avenue M, Galveston",-94.8123578,29.2915799,POINT (-94.8123578 29.2915799)
Valero Corner Store,"6902 Seawall Boulevard, Galveston",-94.8341831,29.2627194,POINT (-94.8341831 29.2627194)
Venso Norma,Galveston,-94.9039424,29.2469914,POINT (-94.9039424 29.2469914)
Victorian Owners Association,"6300 Seawall Boulevard, Galveston",-94.829082,29.2656304,POINT (-94.829082 29.2656304)
Victory Vacations,"6025 Heards Lane #1w, Galveston",-94.8324016,29.2787234,POINT (-94.8324016 29.2787234)
Viento Sereno Apartments,"5510 Avenue M apt #5, Galveston",-94.8282868,29.2878693,POINT (-94.8282868 29.2878693)
Villa Marina Apartments,"210 Harborside Dr, Galveston",-94.7711964,29.3144248,POINT (-94.7711964 29.3144248)
Village by the Sea,"6424 Central City Boulevard, Galveston",-94.8328477,29.2680786,POINT (-94.8328477 29.2680786)
Villas hogar,"2711 Avenue K, Galveston",-94.7965289,29.297712,POINT (-94.7965289 29.297712)
Villas on the Strand,"1524 Ave B, The Strand, Galveston",-94.7861247,29.3094916,POINT (-94.7861247 29.3094916)
VIP Condo at Galveston,"6300 Seawall Blvd UNIT 3210, Galveston",-94.8295761,29.2651179,POINT (-94.8295761 29.2651179)
VIP EXPRESS LLC,"6124 Stewart Road #1876, Galveston",-94.8321963,29.2753201,POINT (-94.8321963 29.2753201)
Virginia Point INN,"2327 Avenue K, Galveston",-94.7924084,29.298642,POINT (-94.7924084 29.298642)
Walgreens,"2501 61st Street, Galveston",-94.8313075,29.274969,POINT (-94.8313075 29.274969)
Walk on Water Yoga,"14302 Stewart Road, Galveston",-94.949243,29.207382,POINT (-94.949243 29.207382)
Walmart Supercenter,"6702 Seawall Boulevard, Galveston",-94.8329455,29.2651472,POINT (-94.8329455 29.2651472)
"Wasted Time Properties, L.LC.","4142 Green Heron Drive #3038, Galveston",-95.0888889,29.1099375,POINT (-95.0888889 29.1099375)
Water's Edge Studio Gallery,"1302 21st Street, Galveston",-94.7885073,29.2978754,POINT (-94.7885073 29.2978754)
Waterfront Apartments Galveston,"1400 Bayou Shore Dr, Galveston",-94.8323339,29.2862019,POINT (-94.8323339 29.2862019)
Waterhouse at Pointe West Residence II,"26710 Baywater Drive, Galveston",-95.1076147,29.10016,POINT (-95.1076147 29.10016)
Waterhouse Pointe West Residence I,"25631 Snowy Egret Drive, Galveston",-95.0915537,29.1065058,POINT (-95.0915537 29.1065058)
Waterman's Marina,"14302 Stewart Road B, Galveston",-94.949295,29.2074966,POINT (-94.949295 29.2074966)
Watermelon Hut,"1806 19th Street, Galveston",-94.7847898,29.2939975,POINT (-94.7847898 29.2939975)
Weis Middle School,"7100 Stewart Road, Galveston",-94.8388036,29.265021,POINT (-94.8388036 29.265021)
Wellness Spa Massage Galveston,"2417 Market Street, Galveston",-94.7955589,29.304727,POINT (-94.7955589 29.304727)
West Beach Grand Condos,"11945 Termini-San Luis Pass Rd, Galveston",-94.9017689,29.2237048,POINT (-94.9017689 29.2237048)
West End Cleaning,"6511 Stewart Road #8, Galveston",-94.8359121,29.2731471,POINT (-94.8359121 29.2731471)
West Isle Urgent Care,"2027 61st Street, Galveston",-94.8329658,29.2782098,POINT (-94.8329658 29.2782098)
West Point Baptist Church,"3003 Avenue M, Galveston",-94.7993029,29.2948955,POINT (-94.7993029 29.2948955)
Westminster Presbyterian Church,"5127 Avenue U, Galveston",-94.8192407,29.2745287,POINT (-94.8192407 29.2745287)
Weyant Electric,"6017 Sea Isle, Galveston",-95.043554,29.1430238,POINT (-95.043554 29.1430238)
What A Seam Alterations,"3001 Avenue M, Galveston",-94.7991626,29.2950922,POINT (-94.7991626 29.2950922)
Wild Side Smoke & Vape Shop,"902 Seawall Boulevard, Galveston",-94.7753052,29.301788,POINT (-94.7753052 29.301788)
William B Travis Apartments,"4818 Avenue R 1/2, Galveston",-94.8170245,29.2803228,POINT (-94.8170245 29.2803228)
William C. Levin Hall,"102 Market Street, Galveston",-94.7796116,29.3096073,POINT (-94.7796116 29.3096073)
Wine Down,"25530 Snowy Egret Drive, Galveston",-95.0910452,29.1076807,POINT (-95.0910452 29.1076807)
Wingate by Wyndham,"1402 Seawall Boulevard, Galveston",-94.7802038,29.297064,POINT (-94.7802038 29.297064)
"Wm. Scott Field, Restoration Architect","3818 Avenue North 1/2, Galveston",-94.8081123,29.2903222,POINT (-94.8081123 29.2903222)
Woodson Lee C MD,"301 University Boulevard, Galveston",-94.7758738,29.3107498,POINT (-94.7758738 29.3107498)
World War II Memorial Monument,"23rd St &, Broadway Avenue J, Galveston",-94.7918254,29.3001509,POINT (-94.7918254 29.3001509)
Woven Inspiration,"2528 Market Street, Galveston",-94.7972703,29.3047128,POINT (-94.7972703 29.3047128)
Wright Cuney Recreation Center,"718 41st Street, Galveston",-94.8130978,29.2970683,POINT (-94.8130978 29.2970683)
www.rentWOWnow.com,"9520 Seawall Boulevard, Galveston",-94.8597328,29.2486135,POINT (-94.8597328 29.2486135)
Yellow Door Beach Home,"4017 Avenue M, Galveston",-94.8112109,29.2919022,POINT (-94.8112109 29.2919022)
"You, Me & The Sea","7000 Seawall Boulevard APT 1011, Galveston",-94.8356196,29.2621609,POINT (-94.8356196 29.2621609)
ZCD CONSTRUCTION,"3211 Avenue M, Galveston",-94.8017521,29.2941676,POINT (-94.8017521 29.2941676)
